{"type": "FeatureCollection", "features": [{"type": "Feature", "properties": {"osm_id": 23161525, "highway": "residential", "name": "Krishna Rao Street", "lanes": null, "width": null}, "geometry": {"type": "LineString", "coordinates": [[80.2434101, 13.0390602], [80.2426959, 13.0391293], [80.2407204, 13.0393205], [80.2405894, 13.0393242], [80.240522, 13.0393154], [80.240497, 13.0392903], [80.2404359, 13.0386388]]}}, {"type": "Feature", "properties": {"osm_id": 23161526, "highway": "residential", "name": "Basudev Street", "lanes": null, "width": null}, "geometry": {"type": "LineString", "coordinates": [[80.2398763, 13.0398721], [80.2407522, 13.0397775]]}}, {"type": "Feature", "properties": {"osm_id": 23161527, "highway": "residential", "name": "Saravanan Street", "lanes": null, "width": null}, "geometry": {"type": "LineString", "coordinates": [[80.239674, 13.0381504], [80.2400464, 13.0381083], [80.243074, 13.0377661]]}}, {"type": "Feature", "properties": {"osm_id": 23161557, "highway": "residential", "name": "Arcot Street", "lanes": null, "width": null}, "geometry": {"type": "LineString", "coordinates": [[80.2426959, 13.0391293], [80.2426306, 13.0383946]]}}, {"type": "Feature", "properties": {"osm_id": 23163886, "highway": "residential", "name": "Daniel Street", "lanes": null, "width": null}, "geometry": {"type": "LineString", "coordinates": [[80.2407204, 13.0393205], [80.2407522, 13.0397775], [80.2408099, 13.0402571], [80.2408166, 13.0403129]]}}, {"type": "Feature", "properties": {"osm_id": 23163974, "highway": "residential", "name": "Viyasar Street", "lanes": null, "width": null}, "geometry": {"type": "LineString", "coordinates": [[80.2355229, 13.044621], [80.234966, 13.0447188], [80.2332034, 13.0449834], [80.232625, 13.0450562]]}}, {"type": "Feature", "properties": {"osm_id": 23163977, "highway": "residential", "name": "Raja Mannar Street", "lanes": null, "width": null}, "geometry": {"type": "LineString", "coordinates": [[80.2383913, 13.043947], [80.2387419, 13.0432878]]}}, {"type": "Feature", "properties": {"osm_id": 23163978, "highway": "residential", "name": "Lakshmanan Chetty Street", "lanes": null, "width": null}, "geometry": {"type": "LineString", "coordinates": [[80.2372161, 13.0439602], [80.2354583, 13.0443157]]}}, {"type": "Feature", "properties": {"osm_id": 23163980, "highway": "residential", "name": "Arulambal Street", "lanes": null, "width": null}, "geometry": {"type": "LineString", "coordinates": [[80.2377487, 13.0444551], [80.2378289, 13.0447014], [80.2379774, 13.0453195], [80.2379985, 13.0453916], [80.238104, 13.0458615], [80.2382514, 13.0465404]]}}, {"type": "Feature", "properties": {"osm_id": 23163981, "highway": "residential", "name": "Sambasivam Street", "lanes": null, "width": null}, "geometry": {"type": "LineString", "coordinates": [[80.2378289, 13.0447014], [80.2356412, 13.0451346]]}}, {"type": "Feature", "properties": {"osm_id": 23163982, "highway": "residential", "name": "Somasundaram Road", "lanes": null, "width": null}, "geometry": {"type": "LineString", "coordinates": [[80.2356533, 13.0452], [80.235081, 13.0452932], [80.2333085, 13.0455387], [80.2327277, 13.0456496]]}}, {"type": "Feature", "properties": {"osm_id": 23163983, "highway": "residential", "name": "Rama Street", "lanes": null, "width": null}, "geometry": {"type": "LineString", "coordinates": [[80.234966, 13.0447188], [80.235081, 13.0452932], [80.2352904, 13.0462365], [80.235426, 13.047096]]}}, {"type": "Feature", "properties": {"osm_id": 23163984, "highway": "residential", "name": "Raja Char Street", "lanes": null, "width": null}, "geometry": {"type": "LineString", "coordinates": [[80.2329085, 13.046593], [80.2333567, 13.0465288], [80.2334924, 13.0465093], [80.2352142, 13.0462787], [80.2352904, 13.0462365], [80.2358379, 13.0461229]]}}, {"type": "Feature", "properties": {"osm_id": 23163986, "highway": "residential", "name": "Hanumanthan Street", "lanes": null, "width": null}, "geometry": {"type": "LineString", "coordinates": [[80.2336315, 13.0473412], [80.2334924, 13.0465093], [80.2333085, 13.0455387], [80.2332034, 13.0449834]]}}, {"type": "Feature", "properties": {"osm_id": 23163994, "highway": "residential", "name": "Jagadambal Street", "lanes": null, "width": null}, "geometry": {"type": "LineString", "coordinates": [[80.2387894, 13.0430745], [80.2397171, 13.0429034], [80.240815, 13.0427047]]}}, {"type": "Feature", "properties": {"osm_id": 23164008, "highway": "residential", "name": "Lodhi Khan 4th Street", "lanes": null, "width": null}, "geometry": {"type": "LineString", "coordinates": [[80.2421856, 13.0402507], [80.2424344, 13.041432]]}}, {"type": "Feature", "properties": {"osm_id": 23164009, "highway": "residential", "name": "Lodhi Khan 2nd Street", "lanes": null, "width": null}, "geometry": {"type": "LineString", "coordinates": [[80.2419929, 13.0415052], [80.2421257, 13.0425101]]}}, {"type": "Feature", "properties": {"osm_id": 23164011, "highway": "residential", "name": "Lodhi Khan 3rd Street", "lanes": null, "width": null}, "geometry": {"type": "LineString", "coordinates": [[80.2425561, 13.0424404], [80.2427473, 13.043657]]}}, {"type": "Feature", "properties": {"osm_id": 23164012, "highway": "residential", "name": "Kamalabhai Street", "lanes": null, "width": null}, "geometry": {"type": "LineString", "coordinates": [[80.2397171, 13.0429034], [80.2397415, 13.0431735], [80.23977, 13.0434887], [80.2397606, 13.0435061], [80.2396988, 13.0436205], [80.2396075, 13.0437895], [80.2395244, 13.0439378], [80.2394984, 13.0439842], [80.2392593, 13.0444265]]}}, {"type": "Feature", "properties": {"osm_id": 23164013, "highway": "residential", "name": "Singara Mudaliar Street", "lanes": null, "width": null}, "geometry": {"type": "LineString", "coordinates": [[80.2357611, 13.0457418], [80.2379774, 13.0453195]]}}, {"type": "Feature", "properties": {"osm_id": 23164015, "highway": "residential", "name": "Yogambal Street", "lanes": null, "width": null}, "geometry": {"type": "LineString", "coordinates": [[80.238104, 13.0458615], [80.2358892, 13.0463481]]}}, {"type": "Feature", "properties": {"osm_id": 23164038, "highway": "residential", "name": "Thilak Street", "lanes": null, "width": null}, "geometry": {"type": "LineString", "coordinates": [[80.2332779, 13.0482386], [80.2343754, 13.0480866], [80.2351731, 13.0479135], [80.2359299, 13.047757]]}}, {"type": "Feature", "properties": {"osm_id": 23164039, "highway": "residential", "name": "Dr Sadasivam Road", "lanes": null, "width": null}, "geometry": {"type": "LineString", "coordinates": [[80.2357936, 13.0470465], [80.2359299, 13.047757], [80.2359526, 13.0478468], [80.2362027, 13.048638], [80.2364816, 13.049476]]}}, {"type": "Feature", "properties": {"osm_id": 23164044, "highway": "residential", "name": "Arulambal Street", "lanes": null, "width": null}, "geometry": {"type": "LineString", "coordinates": [[80.2392545, 13.0499319], [80.2389811, 13.0489333], [80.2387185, 13.0479854]]}}, {"type": "Feature", "properties": {"osm_id": 23164045, "highway": "residential", "name": "Ramakanth Street", "lanes": null, "width": null}, "geometry": {"type": "LineString", "coordinates": [[80.2351731, 13.0479135], [80.2352855, 13.0483635], [80.2354096, 13.0489017], [80.2355971, 13.0496317], [80.2358618, 13.0505428]]}}, {"type": "Feature", "properties": {"osm_id": 23164049, "highway": "residential", "name": "Trimoorthy Street", "lanes": null, "width": null}, "geometry": {"type": "LineString", "coordinates": [[80.2359526, 13.0478468], [80.2370984, 13.047594], [80.2371273, 13.0475876], [80.2372691, 13.0475563], [80.2384691, 13.0472915]]}}, {"type": "Feature", "properties": {"osm_id": 23164050, "highway": "residential", "name": "Chinnaiah Street", "lanes": null, "width": null}, "geometry": {"type": "LineString", "coordinates": [[80.2398249, 13.0473664], [80.2398962, 13.0473452], [80.2402798, 13.047254], [80.2404849, 13.0472052], [80.2405813, 13.0471823], [80.2419307, 13.0468616], [80.242461, 13.0467355]]}}, {"type": "Feature", "properties": {"osm_id": 23164051, "highway": "residential", "name": null, "lanes": null, "width": null}, "geometry": {"type": "LineString", "coordinates": [[80.2426329, 13.0464626], [80.242461, 13.0467355], [80.2421526, 13.0473045], [80.2420512, 13.0475936], [80.2421305, 13.0478222], [80.2421864, 13.0479737], [80.2422177, 13.0480721], [80.2422599, 13.0482075]]}}, {"type": "Feature", "properties": {"osm_id": 23164053, "highway": "residential", "name": "Valmiki Street", "lanes": null, "width": null}, "geometry": {"type": "LineString", "coordinates": [[80.2396399, 13.0467432], [80.2396738, 13.0467322], [80.2408563, 13.0464405], [80.241121, 13.0463828], [80.2412143, 13.0463153], [80.2412749, 13.0462275], [80.2414885, 13.0458656]]}}, {"type": "Feature", "properties": {"osm_id": 23164054, "highway": "residential", "name": null, "lanes": null, "width": null}, "geometry": {"type": "LineString", "coordinates": [[80.2396819, 13.0459587], [80.2409081, 13.0456925]]}}, {"type": "Feature", "properties": {"osm_id": 23164072, "highway": "residential", "name": "Rajan Street", "lanes": null, "width": null}, "geometry": {"type": "LineString", "coordinates": [[80.237713, 13.0491996], [80.2374595, 13.0482836], [80.2372691, 13.0475563]]}}, {"type": "Feature", "properties": {"osm_id": 23186348, "highway": "residential", "name": "Venkatraman Street", "lanes": null, "width": null}, "geometry": {"type": "LineString", "coordinates": [[80.240815, 13.0427047], [80.2421257, 13.0425101], [80.2425561, 13.0424404], [80.2431607, 13.0423485], [80.2433118, 13.0423331], [80.2435211, 13.0423032], [80.2436695, 13.0422832], [80.2437997, 13.0422656], [80.2439578, 13.0422442], [80.2441237, 13.0422217], [80.2443715, 13.0421835]]}}, {"type": "Feature", "properties": {"osm_id": 26524352, "highway": "secondary", "name": "Bazullah Road", "lanes": null, "width": null}, "geometry": {"type": "LineString", "coordinates": [[80.23335, 13.0474066], [80.2336315, 13.0473412], [80.2350767, 13.0471479], [80.235426, 13.047096], [80.2357936, 13.0470465]]}}, {"type": "Feature", "properties": {"osm_id": 27171622, "highway": "residential", "name": "Kannadasan Salai", "lanes": null, "width": null}, "geometry": {"type": "LineString", "coordinates": [[80.2361488, 13.0368214], [80.2367458, 13.0371782], [80.2369094, 13.0372925], [80.237054, 13.0374234], [80.2371173, 13.0375133], [80.2371419, 13.0376014], [80.2371803, 13.0377407], [80.2372004, 13.0378217], [80.2372049, 13.0378797], [80.237191, 13.0379419], [80.2371542, 13.0379973], [80.2370003, 13.0381733], [80.2368934, 13.0382504], [80.2367988, 13.0382952], [80.2367238, 13.0383076]]}}, {"type": "Feature", "properties": {"osm_id": 27172991, "highway": "residential", "name": null, "lanes": null, "width": null}, "geometry": {"type": "LineString", "coordinates": [[80.2373747, 13.0435142], [80.2372734, 13.0437147], [80.2372161, 13.0439602], [80.2372527, 13.0441217], [80.2373376, 13.0442781], [80.2374752, 13.0444006], [80.2377487, 13.0444551], [80.238056, 13.0443528], [80.2382126, 13.0442408], [80.2383232, 13.0440995]]}}, {"type": "Feature", "properties": {"osm_id": 27191864, "highway": "secondary", "name": "North Usman Road", "lanes": null, "width": null}, "geometry": {"type": "LineString", "coordinates": [[80.2327276, 13.0460119], [80.2328342, 13.0465951], [80.2329908, 13.0474226], [80.2330031, 13.0474767], [80.2331706, 13.0482175], [80.2333668, 13.0490026], [80.2335306, 13.049634], [80.2336506, 13.0502901], [80.2337797, 13.0508943], [80.2339371, 13.0516634], [80.2339931, 13.0518366], [80.2341499, 13.0524634], [80.2343074, 13.0530191]]}}, {"type": "Feature", "properties": {"osm_id": 28068579, "highway": "secondary_link", "name": null, "lanes": null, "width": null}, "geometry": {"type": "LineString", "coordinates": [[80.2383232, 13.0440995], [80.2384522, 13.0441745], [80.2384971, 13.0442006], [80.2386846, 13.0443097], [80.238728, 13.0443349], [80.2388894, 13.0444288], [80.238984, 13.0444838], [80.2391282, 13.0445686], [80.23999, 13.0450661], [80.2401677, 13.0451626]]}}, {"type": "Feature", "properties": {"osm_id": 29381606, "highway": "residential", "name": "Kuppusamy Street", "lanes": null, "width": null}, "geometry": {"type": "LineString", "coordinates": [[80.2391282, 13.0445686], [80.2388367, 13.045073], [80.2387812, 13.0451691], [80.2387407, 13.0452392], [80.2386936, 13.0452489], [80.2386308, 13.0452618], [80.2379985, 13.0453916]]}}, {"type": "Feature", "properties": {"osm_id": 29381609, "highway": "footway", "name": null, "lanes": null, "width": null}, "geometry": {"type": "LineString", "coordinates": [[80.237844, 13.043775], [80.2378165, 13.0438476], [80.2375178, 13.044323], [80.2374752, 13.0444006]]}}, {"type": "Feature", "properties": {"osm_id": 29381625, "highway": "footway", "name": null, "lanes": null, "width": null}, "geometry": {"type": "LineString", "coordinates": [[80.2373715, 13.0436201], [80.2378165, 13.0438476], [80.2382607, 13.0441105], [80.2381403, 13.0442345], [80.2379466, 13.044359], [80.2377474, 13.0443784], [80.2375178, 13.044323], [80.2373767, 13.0441819], [80.2372771, 13.0439606], [80.2373048, 13.0437725], [80.2373715, 13.0436201]]}}, {"type": "Feature", "properties": {"osm_id": 30303188, "highway": "secondary", "name": "Thirumalai Pillai Road", "lanes": null, "width": null}, "geometry": {"type": "LineString", "coordinates": [[80.2400694, 13.045324], [80.2398216, 13.0456438], [80.2396778, 13.0458659], [80.2395934, 13.045998], [80.2395564, 13.046055], [80.2395285, 13.0460945], [80.2394984, 13.0461305], [80.2394645, 13.0461685], [80.2394387, 13.0462017], [80.2394309, 13.0462277], [80.239424, 13.0462533], [80.2394311, 13.0462809], [80.2394416, 13.0462953], [80.2394884, 13.0463103], [80.2395391, 13.0463354], [80.2395728, 13.0463989], [80.2395788, 13.0464414], [80.2396399, 13.0467432], [80.2396945, 13.0470199], [80.2397716, 13.0473761], [80.239854, 13.0477372], [80.2399255, 13.0480423], [80.2400588, 13.0487066], [80.240167, 13.0492383], [80.2402043, 13.0494202], [80.2402707, 13.0497433], [80.2404148, 13.0504937], [80.2405087, 13.0509425], [80.2406415, 13.0514905], [80.24075, 13.0519998], [80.2407817, 13.0521263], [80.2408056, 13.0522145], [80.2408311, 13.0522981], [80.2408563, 13.0523708], [80.2408896, 13.0524324]]}}, {"type": "Feature", "properties": {"osm_id": 32235724, "highway": "secondary", "name": "Dr Nair Road", "lanes": null, "width": null}, "geometry": {"type": "LineString", "coordinates": [[80.2405018, 13.0403443], [80.2405137, 13.0404293]]}}, {"type": "Feature", "properties": {"osm_id": 34230315, "highway": "residential", "name": "Arcot Street", "lanes": null, "width": null}, "geometry": {"type": "LineString", "coordinates": [[80.243199, 13.0383211], [80.2426306, 13.0383946], [80.2404359, 13.0386388], [80.2397461, 13.0387289]]}}, {"type": "Feature", "properties": {"osm_id": 112922872, "highway": "residential", "name": "Giri Road", "lanes": null, "width": null}, "geometry": {"type": "LineString", "coordinates": [[80.2435712, 13.0469967], [80.2430518, 13.0479434], [80.2429284, 13.048074], [80.2422599, 13.0482075], [80.2419936, 13.0482699], [80.2418712, 13.0482983], [80.241512, 13.0483816], [80.2401181, 13.0486931]]}}, {"type": "Feature", "properties": {"osm_id": 157911936, "highway": "secondary", "name": "Gopathi Narayanaswami Road", "lanes": null, "width": null}, "geometry": {"type": "LineString", "coordinates": [[80.2359395, 13.0427568], [80.2368885, 13.0432604], [80.2373747, 13.0435142], [80.237844, 13.043775], [80.2383224, 13.0440559]]}}, {"type": "Feature", "properties": {"osm_id": 157915147, "highway": "secondary", "name": "Gopathi Narayanaswami Road", "lanes": null, "width": null}, "geometry": {"type": "LineString", "coordinates": [[80.2453961, 13.0478914], [80.2452515, 13.0478123], [80.2452005, 13.0477875], [80.2448732, 13.0476006], [80.2442052, 13.0472336], [80.2437567, 13.0469824], [80.243618, 13.0469052], [80.2435162, 13.0468482], [80.243385, 13.0467749], [80.2431308, 13.0466327], [80.2426795, 13.046396], [80.2426437, 13.0463772], [80.2423009, 13.0461746]]}}, {"type": "Feature", "properties": {"osm_id": 157915149, "highway": "residential", "name": "North Crescent Road", "lanes": null, "width": null}, "geometry": {"type": "LineString", "coordinates": [[80.2416101, 13.0457336], [80.2420753, 13.0449243], [80.2421915, 13.0448382], [80.2423355, 13.0447959], [80.2425016, 13.0447965], [80.2427041, 13.044832], [80.2433097, 13.0451278]]}}, {"type": "Feature", "properties": {"osm_id": 157915158, "highway": "service", "name": null, "lanes": null, "width": null}, "geometry": {"type": "LineString", "coordinates": [[80.2426437, 13.0463772], [80.242703, 13.0462723], [80.2428327, 13.0460429], [80.2427178, 13.0459726], [80.2427789, 13.045838], [80.2427796, 13.0458078], [80.242763, 13.0457856], [80.2425175, 13.0456759], [80.2423289, 13.0460252], [80.2422856, 13.0461054]]}}, {"type": "Feature", "properties": {"osm_id": 157915162, "highway": "secondary", "name": "Gopathi Narayanaswami Road", "lanes": null, "width": null}, "geometry": {"type": "LineString", "coordinates": [[80.238357, 13.0439749], [80.2374176, 13.0434293], [80.2369121, 13.0431537], [80.2365141, 13.0429287], [80.2362422, 13.04278], [80.236032, 13.042683], [80.2359683, 13.042662]]}}, {"type": "Feature", "properties": {"osm_id": 157989488, "highway": "residential", "name": null, "lanes": null, "width": null}, "geometry": {"type": "LineString", "coordinates": [[80.242936, 13.0455503], [80.2425438, 13.0453464], [80.2424057, 13.0455813], [80.2421861, 13.0459795], [80.2421569, 13.0460301]]}}, {"type": "Feature", "properties": {"osm_id": 157989490, "highway": "secondary_link", "name": null, "lanes": null, "width": null}, "geometry": {"type": "LineString", "coordinates": [[80.23999, 13.0450661], [80.2400371, 13.0451897], [80.2400694, 13.045324]]}}, {"type": "Feature", "properties": {"osm_id": 157989493, "highway": "residential", "name": null, "lanes": null, "width": null}, "geometry": {"type": "LineString", "coordinates": [[80.241525, 13.0445189], [80.2409887, 13.0445907], [80.2406434, 13.0444751]]}}, {"type": "Feature", "properties": {"osm_id": 157989495, "highway": "secondary_link", "name": null, "lanes": null, "width": null}, "geometry": {"type": "LineString", "coordinates": [[80.2401427, 13.0453311], [80.2402616, 13.0452945], [80.2403799, 13.045278]]}}, {"type": "Feature", "properties": {"osm_id": 157989497, "highway": "secondary_link", "name": null, "lanes": null, "width": null}, "geometry": {"type": "LineString", "coordinates": [[80.240477, 13.045115], [80.2404489, 13.0450168], [80.2404292, 13.0449503], [80.2404096, 13.0448962]]}}, {"type": "Feature", "properties": {"osm_id": 157989498, "highway": "secondary_link", "name": null, "lanes": null, "width": null}, "geometry": {"type": "LineString", "coordinates": [[80.2403563, 13.0448612], [80.2402863, 13.0448744], [80.2402208, 13.0448865], [80.2401185, 13.0448963]]}}, {"type": "Feature", "properties": {"osm_id": 184720018, "highway": "secondary", "name": "Venkatanarayana Road", "lanes": null, "width": "8"}, "geometry": {"type": "LineString", "coordinates": [[80.2375933, 13.0343838], [80.237561, 13.0344269], [80.2371939, 13.0349886], [80.2369573, 13.0353381], [80.2363691, 13.0362747], [80.2360711, 13.0367601], [80.2354734, 13.0376837], [80.2348375, 13.0386857], [80.2346846, 13.0389288], [80.2346561, 13.0390017], [80.2346195, 13.0390607], [80.2345921, 13.0390996], [80.2345288, 13.0391816]]}}, {"type": "Feature", "properties": {"osm_id": 189493179, "highway": "residential", "name": "Gopalakrishnan Street", "lanes": null, "width": null}, "geometry": {"type": "LineString", "coordinates": [[80.238414, 13.0418054], [80.2381972, 13.0418328], [80.2362593, 13.042018]]}}, {"type": "Feature", "properties": {"osm_id": 189493180, "highway": "residential", "name": "Dhandapani Street", "lanes": null, "width": null}, "geometry": {"type": "LineString", "coordinates": [[80.2344658, 13.038972], [80.2342539, 13.0381847], [80.2342218, 13.0380361], [80.2340683, 13.0374366], [80.2340129, 13.037205], [80.2338762, 13.0366568], [80.2338504, 13.036459], [80.2337462, 13.0360584], [80.2336102, 13.0354803], [80.2335305, 13.0351646], [80.2334729, 13.0346157]]}}, {"type": "Feature", "properties": {"osm_id": 189493181, "highway": "residential", "name": null, "lanes": null, "width": null}, "geometry": {"type": "LineString", "coordinates": [[80.2379634, 13.0395318], [80.2379209, 13.0393503], [80.2378607, 13.0388875], [80.2378029, 13.0385753], [80.2371542, 13.0379973]]}}, {"type": "Feature", "properties": {"osm_id": 189493182, "highway": "residential", "name": null, "lanes": null, "width": null}, "geometry": {"type": "LineString", "coordinates": [[80.2378029, 13.0385753], [80.2396892, 13.0383396]]}}, {"type": "Feature", "properties": {"osm_id": 189493184, "highway": "residential", "name": "Raja Mannar Street", "lanes": null, "width": null}, "geometry": {"type": "LineString", "coordinates": [[80.2374176, 13.0434293], [80.2377622, 13.0428307], [80.2378909, 13.0426739], [80.2379996, 13.0426225], [80.238245, 13.0425978], [80.2384006, 13.0426373], [80.238608, 13.0427365], [80.2387163, 13.0428613], [80.2387894, 13.0430745], [80.2387419, 13.0432878]]}}, {"type": "Feature", "properties": {"osm_id": 189493185, "highway": "residential", "name": "Radhakrishnan Street", "lanes": "2", "width": null}, "geometry": {"type": "LineString", "coordinates": [[80.2355037, 13.0395934], [80.2356702, 13.0392824], [80.2357104, 13.0392327], [80.235757, 13.0392036], [80.2368017, 13.0390465], [80.2378607, 13.0388875]]}}, {"type": "Feature", "properties": {"osm_id": 189493187, "highway": "residential", "name": null, "lanes": null, "width": null}, "geometry": {"type": "LineString", "coordinates": [[80.2361253, 13.0410427], [80.2361582, 13.0412971], [80.2362107, 13.0416524], [80.2362593, 13.042018], [80.2359268, 13.0426275]]}}, {"type": "Feature", "properties": {"osm_id": 189493190, "highway": "residential", "name": "Sivaprakasam Street", "lanes": null, "width": null}, "geometry": {"type": "LineString", "coordinates": [[80.2382462, 13.0405023], [80.238191, 13.0402046], [80.2381067, 13.0396502], [80.2380989, 13.0396097], [80.2380862, 13.0395764], [80.2380547, 13.0395581], [80.2380118, 13.0395568], [80.2379634, 13.0395318]]}}, {"type": "Feature", "properties": {"osm_id": 189493196, "highway": "residential", "name": "Nano Rao Road", "lanes": null, "width": null}, "geometry": {"type": "LineString", "coordinates": [[80.2359881, 13.0401201], [80.2346805, 13.0402936], [80.234604, 13.0403054], [80.2345269, 13.0403106], [80.2344684, 13.0403027], [80.2340782, 13.0401158]]}}, {"type": "Feature", "properties": {"osm_id": 189493197, "highway": "residential", "name": "kannadsan street", "lanes": "2", "width": null}, "geometry": {"type": "LineString", "coordinates": [[80.2368891, 13.0397227], [80.2368017, 13.0390465], [80.2367238, 13.0383076], [80.2365915, 13.0383169], [80.2364653, 13.0382956], [80.2355623, 13.037729]]}}, {"type": "Feature", "properties": {"osm_id": 189493200, "highway": "residential", "name": "Venkatesan Street", "lanes": null, "width": null}, "geometry": {"type": "LineString", "coordinates": [[80.2342218, 13.0380361], [80.2313909, 13.0386419]]}}, {"type": "Feature", "properties": {"osm_id": 189493202, "highway": "residential", "name": null, "lanes": null, "width": null}, "geometry": {"type": "LineString", "coordinates": [[80.238245, 13.0425978], [80.2381972, 13.0418328]]}}, {"type": "Feature", "properties": {"osm_id": 189493203, "highway": "residential", "name": "Singaravelu Street", "lanes": null, "width": null}, "geometry": {"type": "LineString", "coordinates": [[80.2395593, 13.0400339], [80.2394376, 13.0391423]]}}, {"type": "Feature", "properties": {"osm_id": 189493204, "highway": "residential", "name": "Sivagnanam Street", "lanes": null, "width": null}, "geometry": {"type": "LineString", "coordinates": [[80.2361116, 13.0409583], [80.2360995, 13.0408879], [80.2360312, 13.0404919], [80.2359881, 13.0401201], [80.2359302, 13.0399135], [80.235826, 13.0397672], [80.2355037, 13.0395934]]}}, {"type": "Feature", "properties": {"osm_id": 189500778, "highway": "residential", "name": "Raja Badar Street", "lanes": null, "width": null}, "geometry": {"type": "LineString", "coordinates": [[80.2361582, 13.0412971], [80.2374048, 13.041185], [80.2383347, 13.0410949], [80.2388624, 13.0410152], [80.2395876, 13.0409077], [80.2396144, 13.0409051], [80.2396413, 13.0409074]]}}, {"type": "Feature", "properties": {"osm_id": 189500780, "highway": "residential", "name": "Govindu Street", "lanes": null, "width": null}, "geometry": {"type": "LineString", "coordinates": [[80.2351708, 13.0423685], [80.2351257, 13.0424468], [80.2350157, 13.0425069], [80.232425, 13.0429694]]}}, {"type": "Feature", "properties": {"osm_id": 189500782, "highway": "residential", "name": null, "lanes": null, "width": null}, "geometry": {"type": "LineString", "coordinates": [[80.2362107, 13.0416524], [80.2355028, 13.0417498]]}}, {"type": "Feature", "properties": {"osm_id": 189500784, "highway": "secondary", "name": "Thanikachalam Road", "lanes": null, "width": null}, "geometry": {"type": "LineString", "coordinates": [[80.2397784, 13.0390937], [80.2397461, 13.0387289], [80.2396892, 13.0383396], [80.239674, 13.0381504], [80.239601, 13.0376054], [80.2395492, 13.0371847], [80.2395071, 13.0368446], [80.2394517, 13.0363377], [80.2393957, 13.0360469], [80.2393377, 13.0354525]]}}, {"type": "Feature", "properties": {"osm_id": 189500786, "highway": "residential", "name": "Murugesan Street", "lanes": null, "width": null}, "geometry": {"type": "LineString", "coordinates": [[80.2354272, 13.0441058], [80.2325719, 13.044565]]}}, {"type": "Feature", "properties": {"osm_id": 189500788, "highway": "residential", "name": "Raman Street", "lanes": null, "width": null}, "geometry": {"type": "LineString", "coordinates": [[80.2406756, 13.0417548], [80.2419929, 13.0415052], [80.2424344, 13.041432], [80.2430285, 13.0413371], [80.2441831, 13.0411677], [80.2445605, 13.041116], [80.2450791, 13.041045], [80.2456203, 13.0409708]]}}, {"type": "Feature", "properties": {"osm_id": 189500790, "highway": "residential", "name": null, "lanes": null, "width": null}, "geometry": {"type": "LineString", "coordinates": [[80.2396413, 13.0409074], [80.2396734, 13.0409208], [80.2397203, 13.0409417], [80.2397578, 13.04095], [80.2398102, 13.0409573], [80.2400965, 13.0409273], [80.2405713, 13.0408614]]}}, {"type": "Feature", "properties": {"osm_id": 189500792, "highway": "residential", "name": "Coats Road", "lanes": null, "width": null}, "geometry": {"type": "LineString", "coordinates": [[80.2353634, 13.0435871], [80.232472, 13.0440027]]}}, {"type": "Feature", "properties": {"osm_id": 189500794, "highway": "residential", "name": "Nathamuni Street", "lanes": null, "width": null}, "geometry": {"type": "LineString", "coordinates": [[80.235435, 13.0425125], [80.2352141, 13.0429099], [80.2351364, 13.0430007], [80.2350613, 13.0430425], [80.2349943, 13.0430653], [80.232431, 13.0435329]]}}, {"type": "Feature", "properties": {"osm_id": 189500798, "highway": "tertiary", "name": "Raghaviah Road", "lanes": null, "width": null}, "geometry": {"type": "LineString", "coordinates": [[80.2358495, 13.0427516], [80.2356246, 13.0432019], [80.2355012, 13.043424], [80.2353634, 13.0435871], [80.2354272, 13.0441058], [80.2354583, 13.0443157], [80.2355229, 13.044621], [80.2356412, 13.0451346], [80.2356533, 13.0452], [80.2357611, 13.0457418], [80.2358379, 13.0461229], [80.2358892, 13.0463481], [80.2359752, 13.0467704]]}}, {"type": "Feature", "properties": {"osm_id": 189501135, "highway": "residential", "name": "Gopalakrishna Street", "lanes": null, "width": null}, "geometry": {"type": "LineString", "coordinates": [[80.238414, 13.0418054], [80.2384356, 13.0419817], [80.2384637, 13.0420365], [80.2385183, 13.0420662], [80.2386314, 13.0420574], [80.2390172, 13.0420025], [80.2406756, 13.0417548]]}}, {"type": "Feature", "properties": {"osm_id": 189504056, "highway": "residential", "name": "Masilamani Street", "lanes": null, "width": null}, "geometry": {"type": "LineString", "coordinates": [[80.2379209, 13.0393503], [80.2394376, 13.0391423], [80.2397784, 13.0390937]]}}, {"type": "Feature", "properties": {"osm_id": 189504057, "highway": "residential", "name": "Deena Dyalu Street", "lanes": null, "width": null}, "geometry": {"type": "LineString", "coordinates": [[80.2360312, 13.0404919], [80.238191, 13.0402046]]}}, {"type": "Feature", "properties": {"osm_id": 189504058, "highway": "residential", "name": "Laksmikandan Street", "lanes": null, "width": null}, "geometry": {"type": "LineString", "coordinates": [[80.238191, 13.0402046], [80.2395593, 13.0400339]]}}, {"type": "Feature", "properties": {"osm_id": 189504876, "highway": "residential", "name": "Sri Muthukrishnan Street", "lanes": null, "width": null}, "geometry": {"type": "LineString", "coordinates": [[80.2382752, 13.0406713], [80.2382879, 13.0407535], [80.2383347, 13.0410949], [80.238414, 13.0418054]]}}, {"type": "Feature", "properties": {"osm_id": 206665265, "highway": "service", "name": null, "lanes": null, "width": null}, "geometry": {"type": "LineString", "coordinates": [[80.2333693, 13.0406166], [80.2333514, 13.0405167], [80.2332494, 13.0399463]]}}, {"type": "Feature", "properties": {"osm_id": 206806666, "highway": "residential", "name": null, "lanes": null, "width": null}, "geometry": {"type": "LineString", "coordinates": [[80.2420512, 13.0475936], [80.2420358, 13.0475923], [80.2413332, 13.0477559]]}}, {"type": "Feature", "properties": {"osm_id": 209503012, "highway": "secondary", "name": "Sir Thyagaraya Road", "lanes": "3", "width": null}, "geometry": {"type": "LineString", "coordinates": [[80.2340001, 13.0412393], [80.2340756, 13.041203], [80.2341889, 13.0411842], [80.2361116, 13.0409583], [80.2382752, 13.0406713], [80.2390776, 13.0405509], [80.2396305, 13.0404701], [80.2399497, 13.0404287]]}}, {"type": "Feature", "properties": {"osm_id": 209513216, "highway": "residential", "name": "Pinchal Subramanian Street", "lanes": null, "width": null}, "geometry": {"type": "LineString", "coordinates": [[80.2344722, 13.0390356], [80.2344223, 13.0391449], [80.2343486, 13.0391761], [80.2336581, 13.0392828], [80.2331576, 13.0393601], [80.2323443, 13.0395495], [80.2317049, 13.0397155]]}}, {"type": "Feature", "properties": {"osm_id": 209513219, "highway": "secondary", "name": "Venkatanarayana Road", "lanes": null, "width": null}, "geometry": {"type": "LineString", "coordinates": [[80.2346666, 13.0391393], [80.2352755, 13.0381806], [80.2355623, 13.037729]]}}, {"type": "Feature", "properties": {"osm_id": 209535248, "highway": "secondary", "name": "Panagal Park", "lanes": null, "width": null}, "geometry": {"type": "LineString", "coordinates": [[80.2334299, 13.0406083], [80.2333693, 13.0406166], [80.2329447, 13.0407157], [80.2325732, 13.0407959], [80.2325155, 13.0407996], [80.2324713, 13.0408058], [80.2321761, 13.0408834], [80.2321378, 13.0408791], [80.2320901, 13.0408632], [80.2320667, 13.0408287], [80.2319334, 13.0405292]]}}, {"type": "Feature", "properties": {"osm_id": 214599101, "highway": "residential", "name": null, "lanes": null, "width": null}, "geometry": {"type": "LineString", "coordinates": [[80.2372353, 13.0425762], [80.2369121, 13.0431537]]}}, {"type": "Feature", "properties": {"osm_id": 217691686, "highway": "residential", "name": "Bhagirathi Ammal Street", "lanes": null, "width": null}, "geometry": {"type": "LineString", "coordinates": [[80.2362027, 13.048638], [80.2374595, 13.0482836], [80.2386449, 13.0479974], [80.2387185, 13.0479854], [80.239854, 13.0477372]]}}, {"type": "Feature", "properties": {"osm_id": 217731045, "highway": "footway", "name": null, "lanes": null, "width": null}, "geometry": {"type": "LineString", "coordinates": [[80.2330631, 13.0410544], [80.2329809, 13.0408063], [80.2329447, 13.0407157]]}}, {"type": "Feature", "properties": {"osm_id": 489987382, "highway": "secondary", "name": "Gopathi Narayanaswami Flyover", "lanes": null, "width": null}, "geometry": {"type": "LineString", "coordinates": [[80.2422426, 13.0461415], [80.2407368, 13.0453105]]}}, {"type": "Feature", "properties": {"osm_id": 489987383, "highway": "secondary", "name": "Gopathi Narayanaswami Flyover", "lanes": null, "width": null}, "geometry": {"type": "LineString", "coordinates": [[80.2407009, 13.04537], [80.2422015, 13.0461987]]}}, {"type": "Feature", "properties": {"osm_id": 489987384, "highway": "secondary", "name": "Gopathi Narayanaswami Flyover", "lanes": null, "width": null}, "geometry": {"type": "LineString", "coordinates": [[80.2384117, 13.0440048], [80.238357, 13.0439749]]}}, {"type": "Feature", "properties": {"osm_id": 489987385, "highway": "secondary", "name": "Gopathi Narayanaswami Flyover", "lanes": null, "width": null}, "geometry": {"type": "LineString", "coordinates": [[80.2383692, 13.0440819], [80.2398166, 13.0448741]]}}, {"type": "Feature", "properties": {"osm_id": 489987386, "highway": "secondary", "name": "Gopathi Narayanaswami Flyover", "lanes": null, "width": null}, "geometry": {"type": "LineString", "coordinates": [[80.2407368, 13.0453105], [80.24016, 13.0449838], [80.239856, 13.0448147]]}}, {"type": "Feature", "properties": {"osm_id": 489987387, "highway": "secondary", "name": "Gopathi Narayanaswami Flyover", "lanes": null, "width": null}, "geometry": {"type": "LineString", "coordinates": [[80.2398166, 13.0448741], [80.2407009, 13.04537]]}}, {"type": "Feature", "properties": {"osm_id": 489987388, "highway": "secondary", "name": "Gopathi Narayanaswami Flyover", "lanes": null, "width": null}, "geometry": {"type": "LineString", "coordinates": [[80.239856, 13.0448147], [80.2384117, 13.0440048]]}}, {"type": "Feature", "properties": {"osm_id": 489987389, "highway": "secondary", "name": "Gopathi Narayanaswami Road", "lanes": null, "width": null}, "geometry": {"type": "LineString", "coordinates": [[80.2422806, 13.0462446], [80.2426329, 13.0464626], [80.2428966, 13.046613], [80.2430965, 13.0467269], [80.2435329, 13.0469757], [80.2435712, 13.0469967], [80.2450766, 13.0478331], [80.2453569, 13.0479723], [80.2455078, 13.0480579]]}}, {"type": "Feature", "properties": {"osm_id": 493195696, "highway": "footway", "name": null, "lanes": null, "width": null}, "geometry": {"type": "LineString", "coordinates": [[80.23621, 13.0371011], [80.236108, 13.0372474], [80.2360226, 13.0373718], [80.2359364, 13.0374972], [80.2358318, 13.0376498], [80.2362925, 13.0379274], [80.2364996, 13.0380548], [80.2366391, 13.0380705], [80.236741, 13.0380287], [80.2368215, 13.0379764], [80.2368732, 13.0379039], [80.2368886, 13.0378824], [80.2369234, 13.0377935], [80.2369395, 13.0377021], [80.2369342, 13.0376341], [80.2368993, 13.0375557], [80.2366496, 13.0373911], [80.23621, 13.0371011]]}}, {"type": "Feature", "properties": {"osm_id": 493195701, "highway": "footway", "name": null, "lanes": null, "width": null}, "geometry": {"type": "LineString", "coordinates": [[80.2368934, 13.0382504], [80.2368518, 13.0381635], [80.2368272, 13.0380711], [80.2368215, 13.0379764]]}}, {"type": "Feature", "properties": {"osm_id": 549921644, "highway": "tertiary", "name": "Vijayaraghava Road", "lanes": null, "width": null}, "geometry": {"type": "LineString", "coordinates": [[80.2409843, 13.043953], [80.2417054, 13.0438329], [80.2418223, 13.0438135], [80.2422178, 13.0437476], [80.2423886, 13.0437192], [80.242451, 13.0437088], [80.2427473, 13.043657], [80.2433087, 13.0435813], [80.2433747, 13.0435729], [80.2435047, 13.0435549], [80.2436637, 13.0435335], [80.2438161, 13.0435041], [80.2445937, 13.043383]]}}, {"type": "Feature", "properties": {"osm_id": 692102230, "highway": "residential", "name": "Rajan Street", "lanes": null, "width": null}, "geometry": {"type": "LineString", "coordinates": [[80.2370984, 13.047594], [80.2369209, 13.0468251]]}}, {"type": "Feature", "properties": {"osm_id": 760727527, "highway": "secondary", "name": "Sir Thyagaraya Road", "lanes": "3", "width": null}, "geometry": {"type": "LineString", "coordinates": [[80.240288, 13.0403971], [80.2403764, 13.0404398], [80.2405137, 13.0404293]]}}, {"type": "Feature", "properties": {"osm_id": 843860854, "highway": "secondary", "name": "Thirumalai Road", "lanes": null, "width": null}, "geometry": {"type": "LineString", "coordinates": [[80.2395849, 13.0463443], [80.2395809, 13.0462483], [80.2395968, 13.0461655], [80.2396093, 13.0460997], [80.2396819, 13.0459587], [80.2401427, 13.0453311]]}}, {"type": "Feature", "properties": {"osm_id": 843860855, "highway": "secondary", "name": null, "lanes": null, "width": null}, "geometry": {"type": "LineString", "coordinates": [[80.2395849, 13.0463443], [80.2395538, 13.0462944], [80.2395116, 13.0462819], [80.2394311, 13.0462809]]}}, {"type": "Feature", "properties": {"osm_id": 843860856, "highway": "secondary", "name": null, "lanes": null, "width": null}, "geometry": {"type": "LineString", "coordinates": [[80.2394311, 13.0462809], [80.2395192, 13.0462356], [80.2395455, 13.0462163], [80.2395677, 13.046194], [80.2395968, 13.0461655]]}}, {"type": "Feature", "properties": {"osm_id": 843860857, "highway": "secondary", "name": "North Usman Road", "lanes": null, "width": null}, "geometry": {"type": "LineString", "coordinates": [[80.2330821, 13.0474136], [80.2330189, 13.0471149], [80.2329085, 13.046593], [80.2327906, 13.0460079], [80.2327277, 13.0456496], [80.2326794, 13.0454068], [80.232625, 13.0450562], [80.2326199, 13.045023], [80.2325552, 13.0447298]]}}, {"type": "Feature", "properties": {"osm_id": 845727126, "highway": "secondary", "name": "Doctor Nair Road", "lanes": null, "width": null}, "geometry": {"type": "LineString", "coordinates": [[80.2405137, 13.0404293], [80.2405713, 13.0408614], [80.2405902, 13.0409609], [80.2406287, 13.0412617], [80.2406756, 13.0417548], [80.2407499, 13.0422422], [80.240815, 13.0427047], [80.2409843, 13.043953], [80.2408583, 13.044146], [80.2406434, 13.0444751]]}}, {"type": "Feature", "properties": {"osm_id": 845727127, "highway": "secondary", "name": "Sir Thyagaraya Road", "lanes": "3", "width": null}, "geometry": {"type": "LineString", "coordinates": [[80.2405137, 13.0404293], [80.2421856, 13.0402507], [80.2427316, 13.0401758], [80.2429463, 13.0401464], [80.2429959, 13.0401396], [80.243394, 13.040085], [80.2437214, 13.0400401], [80.2438348, 13.0400245]]}}, {"type": "Feature", "properties": {"osm_id": 995106099, "highway": "service", "name": null, "lanes": null, "width": null}, "geometry": {"type": "LineString", "coordinates": [[80.2395934, 13.045998], [80.2395506, 13.0459551], [80.2391831, 13.045723], [80.2391795, 13.0457068], [80.2391867, 13.0456849], [80.2392397, 13.0456109], [80.2392569, 13.045604], [80.2392866, 13.0456102], [80.2396269, 13.0458186], [80.2396778, 13.0458659]]}}, {"type": "Feature", "properties": {"osm_id": 995110729, "highway": "service", "name": null, "lanes": null, "width": null}, "geometry": {"type": "LineString", "coordinates": [[80.2342539, 13.0381847], [80.2343734, 13.0381575], [80.2346751, 13.0380867]]}}, {"type": "Feature", "properties": {"osm_id": 1035898647, "highway": "residential", "name": null, "lanes": null, "width": null}, "geometry": {"type": "LineString", "coordinates": [[80.2406287, 13.0412617], [80.2401629, 13.0413166], [80.2401512, 13.0413166], [80.2401394, 13.0413121], [80.2401353, 13.0413035], [80.2400965, 13.0409273]]}}, {"type": "Feature", "properties": {"osm_id": 1035898648, "highway": "residential", "name": null, "lanes": null, "width": null}, "geometry": {"type": "LineString", "coordinates": [[80.2388624, 13.0410152], [80.2389137, 13.0414411]]}}, {"type": "Feature", "properties": {"osm_id": 1124378406, "highway": "footway", "name": null, "lanes": null, "width": null}, "geometry": {"type": "LineString", "coordinates": [[80.2361253, 13.0410427], [80.2361116, 13.0409583]]}}, {"type": "Feature", "properties": {"osm_id": 1146682775, "highway": "secondary", "name": "Venkatanarayana Road", "lanes": "2", "width": null}, "geometry": {"type": "LineString", "coordinates": [[80.2338434, 13.0405658], [80.2338827, 13.0404592], [80.2340782, 13.0401158]]}}, {"type": "Feature", "properties": {"osm_id": 1146682776, "highway": "secondary", "name": "Venkatanarayana Road", "lanes": null, "width": null}, "geometry": {"type": "LineString", "coordinates": [[80.2340782, 13.0401158], [80.2346666, 13.0391393]]}}, {"type": "Feature", "properties": {"osm_id": 1148404426, "highway": "secondary", "name": "Panagal Park", "lanes": null, "width": null}, "geometry": {"type": "LineString", "coordinates": [[80.2324897, 13.0422], [80.2326684, 13.0421646], [80.2339335, 13.0418958], [80.2340099, 13.0418641], [80.2340633, 13.0418188]]}}, {"type": "Feature", "properties": {"osm_id": 1148404427, "highway": "secondary", "name": "Panagal Park", "lanes": "2", "width": null}, "geometry": {"type": "LineString", "coordinates": [[80.2340633, 13.0418188], [80.2340311, 13.0416264], [80.2339934, 13.041474], [80.2339751, 13.0413245], [80.2340001, 13.0412393]]}}, {"type": "Feature", "properties": {"osm_id": 1155731194, "highway": "secondary", "name": "Venkatanarayana Road", "lanes": null, "width": null}, "geometry": {"type": "LineString", "coordinates": [[80.2345288, 13.0391816], [80.2337849, 13.0404277], [80.2337115, 13.0405186], [80.233671, 13.040571]]}}, {"type": "Feature", "properties": {"osm_id": 1156857507, "highway": "path", "name": "Sivaprakasam Street", "lanes": null, "width": null}, "geometry": {"type": "LineString", "coordinates": [[80.2382752, 13.0406713], [80.2382637, 13.0405954], [80.2382462, 13.0405023]]}}, {"type": "Feature", "properties": {"osm_id": 1159463312, "highway": "secondary", "name": "Thirumalai Road", "lanes": null, "width": null}, "geometry": {"type": "LineString", "coordinates": [[80.2401181, 13.0486931], [80.2399987, 13.0480251], [80.2399572, 13.047778], [80.2399087, 13.0477214], [80.2398762, 13.0475999], [80.2398249, 13.0473664]]}}, {"type": "Feature", "properties": {"osm_id": 1188053815, "highway": "service", "name": null, "lanes": null, "width": null}, "geometry": {"type": "LineString", "coordinates": [[80.2429959, 13.0401396], [80.2430051, 13.0402063], [80.2430167, 13.0402902], [80.2430752, 13.0407158], [80.2430825, 13.0407242], [80.2430939, 13.0407266], [80.2434606, 13.0406803], [80.2434656, 13.0406769], [80.2434667, 13.0406642], [80.2434131, 13.040227], [80.2434041, 13.0401479], [80.243394, 13.040085]]}}, {"type": "Feature", "properties": {"osm_id": 1188616076, "highway": "service", "name": null, "lanes": null, "width": null}, "geometry": {"type": "LineString", "coordinates": [[80.2332372, 13.0398889], [80.2331716, 13.0394535], [80.2331576, 13.0393601]]}}, {"type": "Feature", "properties": {"osm_id": 1189082657, "highway": "service", "name": null, "lanes": null, "width": null}, "geometry": {"type": "LineString", "coordinates": [[80.2408583, 13.044146], [80.2404109, 13.0439473]]}}, {"type": "Feature", "properties": {"osm_id": 1191711263, "highway": "service", "name": null, "lanes": null, "width": null}, "geometry": {"type": "LineString", "coordinates": [[80.2350767, 13.0471479], [80.2350957, 13.0472785], [80.2351575, 13.0476441]]}}, {"type": "Feature", "properties": {"osm_id": 1204647704, "highway": "secondary", "name": "Sir Thyagaraya Road", "lanes": "3", "width": null}, "geometry": {"type": "LineString", "coordinates": [[80.2438308, 13.039961], [80.2432329, 13.0400185], [80.24263, 13.0400765], [80.2408166, 13.0403129], [80.2405018, 13.0403443], [80.2403799, 13.0403536], [80.240288, 13.0403971]]}}, {"type": "Feature", "properties": {"osm_id": 1211074465, "highway": "secondary_link", "name": null, "lanes": null, "width": null}, "geometry": {"type": "LineString", "coordinates": [[80.2401677, 13.0451626], [80.2402258, 13.0451951], [80.2403799, 13.045278], [80.2414885, 13.0458656], [80.2421833, 13.0462496], [80.2422806, 13.0462446]]}}, {"type": "Feature", "properties": {"osm_id": 1211074466, "highway": "secondary", "name": "Gopathi Narayanaswami Flyover", "lanes": null, "width": null}, "geometry": {"type": "LineString", "coordinates": [[80.2383224, 13.0440559], [80.2383692, 13.0440819]]}}, {"type": "Feature", "properties": {"osm_id": 1211074478, "highway": "secondary", "name": "Panagal Park", "lanes": null, "width": null}, "geometry": {"type": "LineString", "coordinates": [[80.233671, 13.040571], [80.2338013, 13.0405806], [80.2338434, 13.0405658]]}}, {"type": "Feature", "properties": {"osm_id": 1234220606, "highway": "secondary", "name": "Thanikachalam Road", "lanes": null, "width": null}, "geometry": {"type": "LineString", "coordinates": [[80.2399497, 13.0404287], [80.2399415, 13.0403668], [80.2398763, 13.0398721], [80.2397784, 13.0390937]]}}, {"type": "Feature", "properties": {"osm_id": 1248723489, "highway": "residential", "name": null, "lanes": null, "width": null}, "geometry": {"type": "LineString", "coordinates": [[80.2387407, 13.0452392], [80.2387884, 13.0452997], [80.2391061, 13.0456841], [80.2391132, 13.0456865], [80.2391187, 13.0456852], [80.2392237, 13.0455534], [80.2392248, 13.0455462], [80.2392209, 13.0455395], [80.238847, 13.0452146], [80.2387812, 13.0451691]]}}, {"type": "Feature", "properties": {"osm_id": 1248723665, "highway": "residential", "name": null, "lanes": null, "width": null}, "geometry": {"type": "LineString", "coordinates": [[80.2386936, 13.0452489], [80.2387542, 13.0453227], [80.2390733, 13.0457119], [80.2390724, 13.0457267], [80.2390697, 13.0457402], [80.2390656, 13.0457535], [80.2389309, 13.0458018], [80.2389165, 13.0458023], [80.2389032, 13.0458002], [80.2388931, 13.0457914], [80.2386758, 13.0453526], [80.2386308, 13.0452618]]}}, {"type": "Feature", "properties": {"osm_id": 1248725248, "highway": "residential", "name": null, "lanes": null, "width": null}, "geometry": {"type": "LineString", "coordinates": [[80.2391509, 13.0463565], [80.2391268, 13.0462575], [80.2390303, 13.0458364], [80.2390157, 13.0458169], [80.2388471, 13.0458598], [80.2388417, 13.0458877], [80.2389491, 13.0463055], [80.238973, 13.0463963]]}}, {"type": "Feature", "properties": {"osm_id": 1248725541, "highway": "service", "name": null, "lanes": null, "width": null}, "geometry": {"type": "LineString", "coordinates": [[80.2394984, 13.0439842], [80.2392636, 13.0438626]]}}, {"type": "Feature", "properties": {"osm_id": 1248725542, "highway": "residential", "name": null, "lanes": null, "width": null}, "geometry": {"type": "LineString", "coordinates": [[80.2396075, 13.0437895], [80.2392793, 13.0436386]]}}, {"type": "Feature", "properties": {"osm_id": 1248725543, "highway": "residential", "name": null, "lanes": null, "width": null}, "geometry": {"type": "LineString", "coordinates": [[80.2396988, 13.0436205], [80.2394725, 13.0435016], [80.2394324, 13.0435001], [80.2394019, 13.0435001], [80.2392575, 13.0434546]]}}, {"type": "Feature", "properties": {"osm_id": 1248725544, "highway": "residential", "name": null, "lanes": null, "width": null}, "geometry": {"type": "LineString", "coordinates": [[80.2397606, 13.0435061], [80.2402713, 13.0437325]]}}, {"type": "Feature", "properties": {"osm_id": 1248725545, "highway": "residential", "name": null, "lanes": null, "width": null}, "geometry": {"type": "LineString", "coordinates": [[80.2397415, 13.0431735], [80.2402747, 13.0432747]]}}, {"type": "Feature", "properties": {"osm_id": 1248731433, "highway": "residential", "name": null, "lanes": null, "width": null}, "geometry": {"type": "LineString", "coordinates": [[80.242451, 13.0437088], [80.2424711, 13.0438099], [80.2425307, 13.0441087]]}}, {"type": "Feature", "properties": {"osm_id": 1248731434, "highway": "residential", "name": null, "lanes": null, "width": null}, "geometry": {"type": "LineString", "coordinates": [[80.2423886, 13.0437192], [80.2424022, 13.0438078], [80.2424611, 13.0441899]]}}, {"type": "Feature", "properties": {"osm_id": 1248731435, "highway": "residential", "name": null, "lanes": null, "width": null}, "geometry": {"type": "LineString", "coordinates": [[80.2422178, 13.0437476], [80.2422239, 13.0437826], [80.2423072, 13.0442566]]}}, {"type": "Feature", "properties": {"osm_id": 1248732048, "highway": "residential", "name": null, "lanes": null, "width": null}, "geometry": {"type": "LineString", "coordinates": [[80.2428966, 13.046613], [80.2428629, 13.0466717], [80.2424467, 13.0473969], [80.2424453, 13.0474238], [80.2424583, 13.0474559], [80.2426107, 13.0475399], [80.2426389, 13.0475359], [80.2426602, 13.0475065], [80.2430671, 13.0467794], [80.2430965, 13.0467269]]}}, {"type": "Feature", "properties": {"osm_id": 1248733107, "highway": "residential", "name": null, "lanes": null, "width": null}, "geometry": {"type": "LineString", "coordinates": [[80.2426795, 13.046396], [80.2431039, 13.0456681]]}}, {"type": "Feature", "properties": {"osm_id": 1267324815, "highway": "secondary_link", "name": null, "lanes": null, "width": null}, "geometry": {"type": "LineString", "coordinates": [[80.2401185, 13.0448963], [80.23999, 13.0450661]]}}, {"type": "Feature", "properties": {"osm_id": 1267324816, "highway": "secondary", "name": "Gopathi Narayanaswami Road", "lanes": null, "width": null}, "geometry": {"type": "LineString", "coordinates": [[80.2423009, 13.0461746], [80.2422856, 13.0461054], [80.2421569, 13.0460301], [80.2416101, 13.0457336], [80.2406957, 13.0452344], [80.240477, 13.045115], [80.2403338, 13.0450146]]}}, {"type": "Feature", "properties": {"osm_id": 1267324817, "highway": "secondary", "name": "Dr Nair Road", "lanes": null, "width": null}, "geometry": {"type": "LineString", "coordinates": [[80.2406434, 13.0444751], [80.2405675, 13.04454], [80.2403563, 13.0448612]]}}, {"type": "Feature", "properties": {"osm_id": 1267324818, "highway": "secondary_link", "name": null, "lanes": null, "width": null}, "geometry": {"type": "LineString", "coordinates": [[80.2403799, 13.045278], [80.240477, 13.045115]]}}, {"type": "Feature", "properties": {"osm_id": 1268110513, "highway": "secondary", "name": "Dr Nair Road", "lanes": null, "width": null}, "geometry": {"type": "LineString", "coordinates": [[80.2404096, 13.0448962], [80.2404192, 13.0448811], [80.2406256, 13.0445558], [80.2406434, 13.0444751]]}}, {"type": "Feature", "properties": {"osm_id": 1270370568, "highway": "residential", "name": null, "lanes": null, "width": null}, "geometry": {"type": "LineString", "coordinates": [[80.2399572, 13.047778], [80.2399931, 13.0477699], [80.240569, 13.047639]]}}, {"type": "Feature", "properties": {"osm_id": 1270370799, "highway": "service", "name": null, "lanes": null, "width": null}, "geometry": {"type": "LineString", "coordinates": [[80.2399087, 13.0477214], [80.2399719, 13.0477084], [80.2399798, 13.0477072], [80.24029, 13.0476468], [80.2402409, 13.0473816], [80.2399183, 13.0474478], [80.2399073, 13.0473965], [80.2398962, 13.0473452]]}}, {"type": "Feature", "properties": {"osm_id": 1270370800, "highway": "service", "name": null, "lanes": null, "width": null}, "geometry": {"type": "LineString", "coordinates": [[80.2399798, 13.0477072], [80.2399183, 13.0474478]]}}, {"type": "Feature", "properties": {"osm_id": 1270371032, "highway": "service", "name": null, "lanes": null, "width": null}, "geometry": {"type": "LineString", "coordinates": [[80.2402798, 13.047254], [80.2402939, 13.0473112], [80.2403615, 13.0475858]]}}, {"type": "Feature", "properties": {"osm_id": 1270371884, "highway": "residential", "name": null, "lanes": null, "width": null}, "geometry": {"type": "LineString", "coordinates": [[80.2405813, 13.0471823], [80.2405985, 13.0472513], [80.2406676, 13.0475277]]}}, {"type": "Feature", "properties": {"osm_id": 1270371885, "highway": "residential", "name": null, "lanes": null, "width": null}, "geometry": {"type": "LineString", "coordinates": [[80.2404849, 13.0472052], [80.2404983, 13.0472635], [80.2405631, 13.0475461]]}}, {"type": "Feature", "properties": {"osm_id": 1272437212, "highway": "service", "name": null, "lanes": null, "width": null}, "geometry": {"type": "LineString", "coordinates": [[80.2432636, 13.0385009], [80.2429444, 13.0385507]]}}, {"type": "Feature", "properties": {"osm_id": 1272437214, "highway": "residential", "name": "Raja Street", "lanes": null, "width": null}, "geometry": {"type": "LineString", "coordinates": [[80.2359302, 13.0399135], [80.2368891, 13.0397227], [80.2379634, 13.0395318]]}}, {"type": "Feature", "properties": {"osm_id": 1274772779, "highway": "service", "name": null, "lanes": null, "width": null}, "geometry": {"type": "LineString", "coordinates": [[80.2389418, 13.0445658], [80.2388888, 13.0445361], [80.2388435, 13.0445434], [80.238653, 13.0448914], [80.2386545, 13.0449283], [80.2388066, 13.0450152], [80.2388472, 13.0450036], [80.2390286, 13.0446564], [80.2390282, 13.0446296], [80.2390129, 13.0446071], [80.2389418, 13.0445658], [80.2389629, 13.0445248], [80.238984, 13.0444838]]}}, {"type": "Feature", "properties": {"osm_id": 1274772999, "highway": "service", "name": null, "lanes": null, "width": null}, "geometry": {"type": "LineString", "coordinates": [[80.238728, 13.0443349], [80.2386967, 13.0443907], [80.238486, 13.04476], [80.2384718, 13.0447923], [80.2384701, 13.0448197], [80.2384787, 13.0448462], [80.2385759, 13.0449077], [80.2386018, 13.0449103], [80.2386247, 13.0449027], [80.2388653, 13.0444705], [80.2388894, 13.0444288]]}}, {"type": "Feature", "properties": {"osm_id": 1274773461, "highway": "service", "name": null, "lanes": null, "width": null}, "geometry": {"type": "LineString", "coordinates": [[80.2382746, 13.0447143], [80.2382744, 13.0446778], [80.2384665, 13.0442662], [80.2384971, 13.0442006]]}}, {"type": "Feature", "properties": {"osm_id": 1274773462, "highway": "service", "name": null, "lanes": null, "width": null}, "geometry": {"type": "LineString", "coordinates": [[80.2382746, 13.0447143], [80.2383035, 13.0447452], [80.2383933, 13.044796], [80.2384186, 13.0447931], [80.2384355, 13.0447673], [80.2386539, 13.0443666], [80.2386846, 13.0443097]]}}, {"type": "Feature", "properties": {"osm_id": 1274773937, "highway": "service", "name": null, "lanes": null, "width": null}, "geometry": {"type": "LineString", "coordinates": [[80.2382781, 13.04421], [80.2383237, 13.0442031], [80.2384097, 13.0442419], [80.2384095, 13.0442763], [80.2384009, 13.0443296], [80.2383541, 13.0444059]]}}, {"type": "Feature", "properties": {"osm_id": 1274773938, "highway": "service", "name": null, "lanes": null, "width": null}, "geometry": {"type": "LineString", "coordinates": [[80.2384097, 13.0442419], [80.238431, 13.0442082], [80.2384522, 13.0441745]]}}, {"type": "Feature", "properties": {"osm_id": 1274777515, "highway": "service", "name": null, "lanes": null, "width": null}, "geometry": {"type": "LineString", "coordinates": [[80.2384529, 13.044854], [80.2387938, 13.045046], [80.2388367, 13.045073]]}}, {"type": "Feature", "properties": {"osm_id": 1310290992, "highway": "secondary", "name": "Dr Nair Road", "lanes": null, "width": null}, "geometry": {"type": "LineString", "coordinates": [[80.2403338, 13.0450146], [80.2404096, 13.0448962]]}}, {"type": "Feature", "properties": {"osm_id": 1310290993, "highway": "secondary", "name": "Thirumalai Road", "lanes": null, "width": null}, "geometry": {"type": "LineString", "coordinates": [[80.2401427, 13.0453311], [80.2402258, 13.0451951], [80.2403338, 13.0450146]]}}, {"type": "Feature", "properties": {"osm_id": 1313206839, "highway": "secondary", "name": "Gopathi Narayanaswami Flyover", "lanes": null, "width": null}, "geometry": {"type": "LineString", "coordinates": [[80.2422015, 13.0461987], [80.2422806, 13.0462446]]}}, {"type": "Feature", "properties": {"osm_id": 1313206840, "highway": "secondary", "name": "Gopathi Narayanaswami Road", "lanes": null, "width": null}, "geometry": {"type": "LineString", "coordinates": [[80.2403338, 13.0450146], [80.2402759, 13.0449835], [80.2401185, 13.0448963], [80.2398541, 13.0447517], [80.2392593, 13.0444265], [80.2383913, 13.043947]]}}, {"type": "Feature", "properties": {"osm_id": 1313206841, "highway": "secondary", "name": "Gopathi Narayanaswami Road", "lanes": null, "width": null}, "geometry": {"type": "LineString", "coordinates": [[80.2383913, 13.043947], [80.238357, 13.0439749]]}}, {"type": "Feature", "properties": {"osm_id": 1313206842, "highway": "secondary_link", "name": null, "lanes": null, "width": null}, "geometry": {"type": "LineString", "coordinates": [[80.2383224, 13.0440559], [80.2383232, 13.0440995]]}}, {"type": "Feature", "properties": {"osm_id": 1313206843, "highway": "secondary", "name": "Gopathi Narayanaswami Flyover", "lanes": null, "width": null}, "geometry": {"type": "LineString", "coordinates": [[80.2423009, 13.0461746], [80.2422426, 13.0461415]]}}, {"type": "Feature", "properties": {"osm_id": 1316582526, "highway": "secondary", "name": "Dr Nair Road", "lanes": null, "width": null}, "geometry": {"type": "LineString", "coordinates": [[80.2403563, 13.0448612], [80.2402759, 13.0449835], [80.2401677, 13.0451626]]}}, {"type": "Feature", "properties": {"osm_id": 1316582527, "highway": "secondary", "name": "Thirumalai Pillai Road", "lanes": null, "width": null}, "geometry": {"type": "LineString", "coordinates": [[80.2401677, 13.0451626], [80.2400694, 13.045324]]}}, {"type": "Feature", "properties": {"osm_id": 1318323118, "highway": "secondary", "name": "Thirumalai Road", "lanes": null, "width": null}, "geometry": {"type": "LineString", "coordinates": [[80.2398249, 13.0473664], [80.2397364, 13.0470169], [80.2396738, 13.0467322], [80.2395849, 13.0463443]]}}, {"type": "Feature", "properties": {"osm_id": 1321816521, "highway": "residential", "name": null, "lanes": null, "width": null}, "geometry": {"type": "LineString", "coordinates": [[80.2419307, 13.0468616], [80.2418516, 13.0465321]]}}, {"type": "Feature", "properties": {"osm_id": 1324133089, "highway": "secondary_link", "name": "Dhandapani Street", "lanes": null, "width": null}, "geometry": {"type": "LineString", "coordinates": [[80.2346666, 13.0391393], [80.2345921, 13.0390996], [80.2345177, 13.0390598], [80.2344722, 13.0390356]]}}, {"type": "Feature", "properties": {"osm_id": 1324133090, "highway": "residential", "name": null, "lanes": null, "width": null}, "geometry": {"type": "LineString", "coordinates": [[80.2344658, 13.038972], [80.2344722, 13.0390356]]}}, {"type": "Feature", "properties": {"osm_id": 1341284550, "highway": "residential", "name": "Sivagnanam Street", "lanes": null, "width": null}, "geometry": {"type": "LineString", "coordinates": [[80.2355037, 13.0395934], [80.2347231, 13.0392445], [80.2347022, 13.039225], [80.2346666, 13.0391393]]}}, {"type": "Feature", "properties": {"osm_id": 1342364771, "highway": "secondary", "name": "Sir Thyagaraya Road", "lanes": "3", "width": null}, "geometry": {"type": "LineString", "coordinates": [[80.2399497, 13.0404287], [80.240288, 13.0403971]]}}, {"type": "Feature", "properties": {"osm_id": 1349707178, "highway": "secondary", "name": "North Usman Road", "lanes": null, "width": null}, "geometry": {"type": "LineString", "coordinates": [[80.2345752, 13.0534777], [80.2344355, 13.052999], [80.2343681, 13.0527596], [80.2342624, 13.0523895], [80.2340931, 13.0518023], [80.2340068, 13.0515216], [80.2339388, 13.0511938], [80.2339337, 13.0511692], [80.2338798, 13.0509092], [80.233704, 13.0500176], [80.2335964, 13.0495124], [80.2334717, 13.0489692], [80.2332779, 13.0482386], [80.233094, 13.0474636], [80.2330821, 13.0474136]]}}, {"type": "Feature", "properties": {"osm_id": 1349708004, "highway": "secondary", "name": "Gopathi Narayanaswami Road", "lanes": null, "width": null}, "geometry": {"type": "LineString", "coordinates": [[80.2340633, 13.0418188], [80.2341387, 13.0418092], [80.2342044, 13.0418183], [80.2342625, 13.0418469], [80.2351708, 13.0423685], [80.235435, 13.0425125], [80.2358215, 13.0427123]]}}, {"type": "Feature", "properties": {"osm_id": 1349708005, "highway": "secondary", "name": "Gopathi Narayanaswami Road", "lanes": null, "width": null}, "geometry": {"type": "LineString", "coordinates": [[80.2358564, 13.0426295], [80.2355574, 13.0424706], [80.2354521, 13.0424147], [80.2342589, 13.0417806], [80.2341548, 13.0417256], [80.2340877, 13.0416929], [80.2340311, 13.0416264]]}}, {"type": "Feature", "properties": {"osm_id": 1349708006, "highway": "secondary", "name": null, "lanes": null, "width": null}, "geometry": {"type": "LineString", "coordinates": [[80.2359465, 13.0426414], [80.2359268, 13.0426275], [80.2359035, 13.0426206], [80.2358792, 13.0426212], [80.2358564, 13.0426295], [80.2358375, 13.0426444], [80.2358246, 13.0426645], [80.2358189, 13.0426881], [80.2358215, 13.0427123], [80.2358321, 13.0427343], [80.2358495, 13.0427516], [80.2358718, 13.0427624], [80.2359083, 13.0427674], [80.2359395, 13.0427568], [80.2359582, 13.0427292], [80.2359668, 13.042707], [80.2359683, 13.042662], [80.2359465, 13.0426414]]}}, {"type": "Feature", "properties": {"osm_id": 1349723862, "highway": "tertiary", "name": null, "lanes": null, "width": null}, "geometry": {"type": "LineString", "coordinates": [[80.2345384, 13.039027], [80.2345177, 13.0390598], [80.2342995, 13.0394081], [80.234276, 13.0394456], [80.2338107, 13.0402271], [80.2337214, 13.0403778], [80.2337002, 13.0404125], [80.2336639, 13.0404541], [80.2336218, 13.0404874], [80.2335041, 13.0405342], [80.2334734, 13.0405513], [80.2334299, 13.0406083]]}}, {"type": "Feature", "properties": {"osm_id": 1349723863, "highway": "tertiary", "name": "vekatanarayana road", "lanes": "2", "width": null}, "geometry": {"type": "LineString", "coordinates": [[80.2346846, 13.0389288], [80.2345958, 13.0389712], [80.2345384, 13.039027]]}}, {"type": "Feature", "properties": {"osm_id": 1361618297, "highway": "service", "name": null, "lanes": null, "width": null}, "geometry": {"type": "LineString", "coordinates": [[80.2417054, 13.0438329], [80.2417003, 13.0437991], [80.2416967, 13.0437753], [80.2416249, 13.0433001], [80.24163, 13.0432812], [80.2416425, 13.0432721], [80.2417206, 13.0432609], [80.2417444, 13.0432624], [80.2417593, 13.0432751], [80.2418161, 13.0437605], [80.2418189, 13.0437841], [80.2418223, 13.0438135]]}}, {"type": "Feature", "properties": {"osm_id": 1361618298, "highway": "service", "name": null, "lanes": null, "width": null}, "geometry": {"type": "LineString", "coordinates": [[80.2416967, 13.0437753], [80.2417819, 13.0437647], [80.2418161, 13.0437605]]}}, {"type": "Feature", "properties": {"osm_id": 1386980520, "highway": "service", "name": null, "lanes": null, "width": null}, "geometry": {"type": "LineString", "coordinates": [[80.2398541, 13.0447517], [80.2400942, 13.0443018]]}}, {"type": "Feature", "properties": {"osm_id": 1442951267, "highway": "residential", "name": null, "lanes": null, "width": null}, "geometry": {"type": "LineString", "coordinates": [[80.2336581, 13.0392828], [80.2335967, 13.0388611]]}}, {"type": "Feature", "properties": {"osm_id": 1450186994, "highway": "residential", "name": null, "lanes": null, "width": null}, "geometry": {"type": "LineString", "coordinates": [[80.2355574, 13.0424706], [80.2355731, 13.0424242], [80.2355888, 13.0423778], [80.2356663, 13.0421485], [80.2357745, 13.0420639], [80.2358484, 13.0420771], [80.2360009, 13.0421804], [80.2360171, 13.0422396], [80.2358976, 13.0424599], [80.2358267, 13.0424892], [80.2355888, 13.0423778]]}}, {"type": "Feature", "properties": {"osm_id": 1455706391, "highway": "secondary", "name": "Panagal Park", "lanes": null, "width": null}, "geometry": {"type": "LineString", "coordinates": [[80.233671, 13.040571], [80.2334299, 13.0406083]]}}, {"type": "Feature", "properties": {"osm_id": 1473773532, "highway": "service", "name": null, "lanes": null, "width": null}, "geometry": {"type": "LineString", "coordinates": [[80.2352755, 13.0381806], [80.2354015, 13.0382533]]}}, {"type": "Feature", "properties": {"osm_id": 1473773533, "highway": "steps", "name": null, "lanes": null, "width": null}, "geometry": {"type": "LineString", "coordinates": [[80.2354304, 13.0382691], [80.2354869, 13.0383025]]}}, {"type": "Feature", "properties": {"osm_id": 1473773534, "highway": "service", "name": null, "lanes": null, "width": null}, "geometry": {"type": "LineString", "coordinates": [[80.2354015, 13.0382533], [80.235417, 13.0382616], [80.2354304, 13.0382691]]}}, {"type": "Feature", "properties": {"osm_id": 1473773535, "highway": "service", "name": null, "lanes": null, "width": null}, "geometry": {"type": "LineString", "coordinates": [[80.235417, 13.0382616], [80.2354315, 13.038243], [80.2354425, 13.0382286], [80.2354451, 13.0382248], [80.2354471, 13.0382238], [80.2354497, 13.038224], [80.235833, 13.0384442], [80.2358355, 13.0384508], [80.2358361, 13.0384575], [80.235774, 13.0385554], [80.2357717, 13.0385572]]}}, {"type": "Feature", "properties": {"osm_id": 1473773536, "highway": "service", "name": null, "lanes": null, "width": null}, "geometry": {"type": "LineString", "coordinates": [[80.2354315, 13.038243], [80.235418, 13.0382338]]}}, {"type": "Feature", "properties": {"osm_id": 1473773537, "highway": "service", "name": null, "lanes": null, "width": null}, "geometry": {"type": "LineString", "coordinates": [[80.235417, 13.0382616], [80.2354051, 13.0382776], [80.2353945, 13.038292], [80.2353945, 13.0382992], [80.235396, 13.0383042], [80.2353987, 13.0383093], [80.2357689, 13.0385563], [80.2357717, 13.0385572]]}}, {"type": "Feature", "properties": {"osm_id": 1473773538, "highway": "service", "name": null, "lanes": null, "width": null}, "geometry": {"type": "LineString", "coordinates": [[80.2354051, 13.0382776], [80.2353913, 13.0382684]]}}, {"type": "Feature", "properties": {"osm_id": 1500210014, "highway": "residential", "name": null, "lanes": null, "width": null}, "geometry": {"type": "LineString", "coordinates": [[80.2395244, 13.0439378], [80.2395609, 13.0439594], [80.2400461, 13.0442323]]}}, {"type": "Feature", "properties": {"osm_id": 1501132747, "highway": "bus_stop", "name": "T. Nagar", "lanes": null, "width": null}, "geometry": {"type": "LineString", "coordinates": [[80.2376529, 13.0407766], [80.2377914, 13.0407679], [80.2377934, 13.0407989], [80.237655, 13.0408076], [80.2376529, 13.0407766]]}}, {"type": "Feature", "properties": {"osm_id": 1501132748, "highway": "footway", "name": null, "lanes": null, "width": null}, "geometry": {"type": "LineString", "coordinates": [[80.2432195, 13.0399168], [80.2408099, 13.0402571], [80.2399415, 13.0403668], [80.2396205, 13.040401], [80.2382637, 13.0405954], [80.2360995, 13.0408879], [80.2340248, 13.0411799]]}}, {"type": "Feature", "properties": {"osm_id": 1501132749, "highway": "service", "name": null, "lanes": null, "width": null}, "geometry": {"type": "LineString", "coordinates": [[80.2390776, 13.0405509], [80.2390883, 13.0406195], [80.2391191, 13.0408173]]}}, {"type": "Feature", "properties": {"osm_id": 1501132752, "highway": "footway", "name": null, "lanes": null, "width": "9.2"}, "geometry": {"type": "LineString", "coordinates": [[80.239641, 13.040541], [80.2391051, 13.040617], [80.2390883, 13.0406195], [80.2390677, 13.0406224], [80.2383574, 13.040726], [80.2383397, 13.0407446], [80.2382879, 13.0407535], [80.2381974, 13.0407693]]}}, {"type": "Feature", "properties": {"osm_id": 1501132754, "highway": "footway", "name": null, "lanes": null, "width": null}, "geometry": {"type": "LineString", "coordinates": [[80.2382581, 13.0410154], [80.2382227, 13.0407875], [80.2381974, 13.0407693], [80.2361253, 13.0410427], [80.2341495, 13.0412707], [80.2340898, 13.0412893], [80.2340527, 13.0413244], [80.2340451, 13.0413576]]}}, {"type": "Feature", "properties": {"osm_id": 1501687179, "highway": "secondary_link", "name": null, "lanes": null, "width": null}, "geometry": {"type": "LineString", "coordinates": [[80.2343486, 13.0391761], [80.2342995, 13.0394081]]}}, {"type": "Feature", "properties": {"osm_id": 1502749445, "highway": "service", "name": null, "lanes": null, "width": null}, "geometry": {"type": "LineString", "coordinates": [[80.242703, 13.0462723], [80.2425693, 13.0461991], [80.2424899, 13.046157], [80.2424467, 13.0461251], [80.2424082, 13.0460819], [80.242386, 13.0460523], [80.2423289, 13.0460252]]}}, {"type": "Feature", "properties": {"osm_id": 1503280101, "highway": "residential", "name": null, "lanes": null, "width": null}, "geometry": {"type": "LineString", "coordinates": [[80.2396892, 13.0383396], [80.239777, 13.0383322], [80.2400349, 13.0383107], [80.2400534, 13.0382939], [80.2400618, 13.038261], [80.2400519, 13.0381744], [80.2400464, 13.0381083]]}}, {"type": "Feature", "properties": {"osm_id": 1518591728, "highway": "residential", "name": "Trimoorthy Street", "lanes": null, "width": null}, "geometry": {"type": "LineString", "coordinates": [[80.2384691, 13.0472915], [80.2396945, 13.0470199], [80.2397364, 13.0470169]]}}, {"type": "Feature", "properties": {"osm_id": 1518591729, "highway": "residential", "name": "Arulambal Street", "lanes": null, "width": null}, "geometry": {"type": "LineString", "coordinates": [[80.2384691, 13.0472915], [80.2386449, 13.0479974]]}}, {"type": "Feature", "properties": {"osm_id": 1518591730, "highway": "secondary", "name": "Bazullah Road", "lanes": null, "width": null}, "geometry": {"type": "LineString", "coordinates": [[80.2382514, 13.0465404], [80.238973, 13.0463963], [80.2391509, 13.0463565], [80.2394311, 13.0462809]]}}, {"type": "Feature", "properties": {"osm_id": 1518591731, "highway": "residential", "name": "Arulambal Street", "lanes": null, "width": null}, "geometry": {"type": "LineString", "coordinates": [[80.2382581, 13.0465636], [80.2384691, 13.0472915]]}}, {"type": "Feature", "properties": {"osm_id": 1518591732, "highway": "secondary", "name": "Bazullah Road", "lanes": null, "width": null}, "geometry": {"type": "LineString", "coordinates": [[80.2377153, 13.0466551], [80.2382313, 13.0465447]]}}, {"type": "Feature", "properties": {"osm_id": 1525443676, "highway": "residential", "name": "Arulambal Street", "lanes": null, "width": null}, "geometry": {"type": "LineString", "coordinates": [[80.2382514, 13.0465404], [80.2382581, 13.0465636]]}}, {"type": "Feature", "properties": {"osm_id": 1525443677, "highway": "secondary", "name": "Bazullah Road", "lanes": null, "width": null}, "geometry": {"type": "LineString", "coordinates": [[80.2382313, 13.0465447], [80.2382514, 13.0465404]]}}, {"type": "Feature", "properties": {"osm_id": 1525826444, "highway": "secondary", "name": "Bazullah Road", "lanes": null, "width": null}, "geometry": {"type": "LineString", "coordinates": [[80.2330821, 13.0474136], [80.2329908, 13.0474226]]}}, {"type": "Feature", "properties": {"osm_id": 1525826445, "highway": "secondary", "name": "Bazullah Road", "lanes": null, "width": null}, "geometry": {"type": "LineString", "coordinates": [[80.23335, 13.0474066], [80.2332983, 13.047387], [80.2330821, 13.0474136]]}}, {"type": "Feature", "properties": {"osm_id": 1525826446, "highway": "secondary", "name": "Bazullah Road", "lanes": null, "width": null}, "geometry": {"type": "LineString", "coordinates": [[80.2330031, 13.0474767], [80.233094, 13.0474636], [80.2331573, 13.0474553], [80.2333036, 13.0474341], [80.23335, 13.0474066]]}}, {"type": "Feature", "properties": {"osm_id": 1525826448, "highway": "tertiary", "name": "Bazulla Flyover", "lanes": null, "width": null}, "geometry": {"type": "LineString", "coordinates": [[80.2325685, 13.0475079], [80.2327628, 13.047494], [80.2330031, 13.0474767]]}}, {"type": "Feature", "properties": {"osm_id": 1530508238, "highway": "secondary", "name": "Bazullah Road", "lanes": null, "width": null}, "geometry": {"type": "LineString", "coordinates": [[80.2360228, 13.0470044], [80.2369209, 13.0468251], [80.2377153, 13.0466551]]}}, {"type": "Feature", "properties": {"osm_id": 1530508239, "highway": "secondary", "name": "Bazullah Road", "lanes": null, "width": null}, "geometry": {"type": "LineString", "coordinates": [[80.2357936, 13.0470465], [80.2360228, 13.0470044]]}}, {"type": "Feature", "properties": {"osm_id": 1530508240, "highway": "tertiary", "name": "Raghaviah Road", "lanes": null, "width": null}, "geometry": {"type": "LineString", "coordinates": [[80.2359752, 13.0467704], [80.2360228, 13.0470044]]}}, {"type": "Feature", "properties": {"osm_id": 1530547623, "highway": "service", "name": null, "lanes": null, "width": null}, "geometry": {"type": "LineString", "coordinates": [[80.2330189, 13.0471149], [80.2330634, 13.0471076], [80.2331102, 13.0471], [80.2334394, 13.0470467], [80.2334608, 13.0470155], [80.2334058, 13.0466544], [80.2333719, 13.046622], [80.2333353, 13.0466063], [80.2330581, 13.0466583], [80.233044, 13.0466924], [80.233036, 13.046747], [80.2331102, 13.0471]]}}, {"type": "Feature", "properties": {"osm_id": 1530547624, "highway": "service", "name": null, "lanes": null, "width": null}, "geometry": {"type": "LineString", "coordinates": [[80.2333719, 13.046622], [80.2333638, 13.0465726], [80.2333567, 13.0465288]]}}, {"type": "Feature", "properties": {"osm_id": 1535829505, "highway": "residential", "name": null, "lanes": null, "width": null}, "geometry": {"type": "LineString", "coordinates": [[80.239854, 13.0477372], [80.2399087, 13.0477214]]}}, {"type": "Feature", "properties": {"osm_id": 1550805257, "highway": "residential", "name": "Singaravelu Street", "lanes": null, "width": null}, "geometry": {"type": "LineString", "coordinates": [[80.2396305, 13.0404701], [80.2396205, 13.040401], [80.2395975, 13.0402635], [80.2395593, 13.0400339]]}}, {"type": "Feature", "properties": {"osm_id": 1551295384, "highway": "footway", "name": null, "lanes": null, "width": null}, "geometry": {"type": "LineString", "coordinates": [[80.2325572, 13.0411513], [80.2330631, 13.0410544]]}}, {"type": "Feature", "properties": {"osm_id": 1551295385, "highway": "footway", "name": null, "lanes": null, "width": null}, "geometry": {"type": "LineString", "coordinates": [[80.2326626, 13.041584], [80.2330631, 13.0410544]]}}, {"type": "Feature", "properties": {"osm_id": 1554388534, "highway": "service", "name": null, "lanes": null, "width": null}, "geometry": {"type": "LineString", "coordinates": [[80.2404192, 13.0448811], [80.2404522, 13.0448991], [80.2405238, 13.0449383], [80.2405307, 13.044949], [80.2405382, 13.0449703], [80.2405435, 13.0449894], [80.2405521, 13.0450039], [80.2407409, 13.0451], [80.2407526, 13.0451153], [80.2407512, 13.0451387], [80.2407307, 13.0451758], [80.2407141, 13.0452037], [80.2406957, 13.0452344]]}}, {"type": "Feature", "properties": {"osm_id": 1563712049, "highway": "service", "name": null, "lanes": null, "width": null}, "geometry": {"type": "LineString", "coordinates": [[80.2427406, 13.0402493], [80.2428255, 13.0407646], [80.2428407, 13.0407917], [80.2428697, 13.0408038], [80.2430176, 13.0407915], [80.2430471, 13.0407727], [80.2430592, 13.0407423], [80.2429627, 13.040233]]}}, {"type": "Feature", "properties": {"osm_id": 1563712050, "highway": "service", "name": null, "lanes": null, "width": null}, "geometry": {"type": "LineString", "coordinates": [[80.2427316, 13.0401758], [80.2427406, 13.0402493]]}}, {"type": "Feature", "properties": {"osm_id": 1563712051, "highway": "service", "name": null, "lanes": null, "width": null}, "geometry": {"type": "LineString", "coordinates": [[80.2429627, 13.040233], [80.2429463, 13.0401464]]}}]}