{"type": "FeatureCollection", "features": [{"type": "Feature", "properties": {"osm_id": 23186292, "landuse": "park"}, "geometry": {"type": "Polygon", "coordinates": [[[80.2373798, 13.0436339], [80.237315, 13.043782], [80.2372881, 13.0439647], [80.2373848, 13.0441797], [80.2375219, 13.0443168], [80.2377449, 13.0443706], [80.2379384, 13.0443517], [80.2381266, 13.0442308], [80.2382435, 13.0441103], [80.2378121, 13.0438561], [80.2373798, 13.0436339]]]}}, {"type": "Feature", "properties": {"osm_id": 23186293, "landuse": "park"}, "geometry": {"type": "Polygon", "coordinates": [[[80.2375083, 13.0434419], [80.2378664, 13.0427849], [80.2380269, 13.0426742], [80.2382648, 13.042641], [80.2384344, 13.04271], [80.2386408, 13.04285], [80.2387207, 13.043029], [80.2387102, 13.0432496], [80.2386244, 13.0434405], [80.2383633, 13.0439014], [80.2375083, 13.0434419]]]}}, {"type": "Feature", "properties": {"osm_id": 23186294, "landuse": "park"}, "geometry": {"type": "Polygon", "coordinates": [[[80.2333755, 13.0455396], [80.2335709, 13.0464771], [80.2352794, 13.0462349], [80.2351032, 13.0453], [80.2333755, 13.0455396]]]}}, {"type": "Feature", "properties": {"osm_id": 28068665, "landuse": "school"}, "geometry": {"type": "Polygon", "coordinates": [[[80.2407502, 13.0416751], [80.2423888, 13.0414215], [80.2421417, 13.0403105], [80.240595, 13.0404864], [80.2407502, 13.0416751]]]}}, {"type": "Feature", "properties": {"osm_id": 28085709, "landuse": "school"}, "geometry": {"type": "Polygon", "coordinates": [[[80.2345882, 13.0410637], [80.2341006, 13.0411201], [80.2339997, 13.0410414], [80.2339211, 13.0406109], [80.2339523, 13.0404589], [80.234108, 13.0401756], [80.2344903, 13.0403599], [80.2345882, 13.0410637]]]}}, {"type": "Feature", "properties": {"osm_id": 28085766, "landuse": "park"}, "geometry": {"type": "Polygon", "coordinates": [[[80.2355923, 13.0377304], [80.2364722, 13.0382825], [80.2367241, 13.0382942], [80.2367971, 13.0382821], [80.2370142, 13.0381758], [80.2371905, 13.0379613], [80.2372007, 13.0378391], [80.2371681, 13.0376455], [80.2370445, 13.0374072], [80.2367076, 13.0371618], [80.2361638, 13.036846], [80.2355923, 13.0377304]]]}}, {"type": "Feature", "properties": {"osm_id": 155211632, "landuse": "retail"}, "geometry": {"type": "Polygon", "coordinates": [[[80.2331339, 13.0472338], [80.2332001, 13.0472969], [80.2335909, 13.047268], [80.2334648, 13.0465432], [80.2330379, 13.0466066], [80.2331339, 13.0472338]]]}}, {"type": "Feature", "properties": {"osm_id": 157989504, "landuse": "commercial"}, "geometry": {"type": "Polygon", "coordinates": [[[80.2405287, 13.0450557], [80.2404696, 13.0448903], [80.2406222, 13.0446578], [80.2412003, 13.0448783], [80.2413183, 13.0447465], [80.2416234, 13.0446483], [80.2416037, 13.0444733], [80.2418448, 13.0444326], [80.2418817, 13.0446291], [80.2413897, 13.0455254], [80.2405287, 13.0450557]]]}}, {"type": "Feature", "properties": {"osm_id": 157989513, "landuse": "commercial"}, "geometry": {"type": "Polygon", "coordinates": [[[80.2427016, 13.0462967], [80.2422032, 13.0460092], [80.2424265, 13.0455601], [80.2426334, 13.0456722], [80.2428583, 13.0458138], [80.2427738, 13.0459533], [80.2428686, 13.0460085], [80.2428091, 13.046119], [80.2427016, 13.0462967]]]}}, {"type": "Feature", "properties": {"osm_id": 157989514, "landuse": "commercial"}, "geometry": {"type": "Polygon", "coordinates": [[[80.2381037, 13.044432], [80.2383542, 13.0441914], [80.2390952, 13.0445913], [80.2388835, 13.0449508], [80.2387299, 13.0452116], [80.2381037, 13.044432]]]}}, {"type": "Feature", "properties": {"osm_id": 157989517, "landuse": "commercial"}, "geometry": {"type": "Polygon", "coordinates": [[[80.2427026, 13.0463279], [80.2431306, 13.0465604], [80.2435636, 13.0458414], [80.2431159, 13.0455994], [80.2427026, 13.0463279]]]}}, {"type": "Feature", "properties": {"osm_id": 157989530, "landuse": "commercial"}, "geometry": {"type": "Polygon", "coordinates": [[[80.2422697, 13.0402971], [80.2423712, 13.0409096], [80.2430961, 13.040793], [80.2434862, 13.0407302], [80.243564, 13.0407177], [80.243644, 13.0412261], [80.2441659, 13.0411447], [80.243893, 13.0402136], [80.243541, 13.0401163], [80.2422697, 13.0402971]]]}}, {"type": "Feature", "properties": {"osm_id": 157989531, "landuse": "commercial"}, "geometry": {"type": "Polygon", "coordinates": [[[80.240723, 13.0442744], [80.2402556, 13.0440755], [80.2401523, 13.0442672], [80.2395545, 13.0439533], [80.2393012, 13.044399], [80.2401621, 13.0448687], [80.2403663, 13.0448208], [80.240723, 13.0442744]]]}}, {"type": "Feature", "properties": {"osm_id": 157989534, "landuse": "commercial"}, "geometry": {"type": "Polygon", "coordinates": [[[80.2394987, 13.0461334], [80.2394152, 13.046191], [80.2389804, 13.0462724], [80.2387061, 13.0453216], [80.2388308, 13.0452692], [80.2391682, 13.0446388], [80.2399162, 13.0450557], [80.240038, 13.0452827], [80.2398569, 13.0455684], [80.2397438, 13.0457468], [80.2394987, 13.0461334]]]}}, {"type": "Feature", "properties": {"osm_id": 209513246, "landuse": "park"}, "geometry": {"type": "Polygon", "coordinates": [[[80.2332037, 13.0407614], [80.2329809, 13.0408063], [80.2322953, 13.0409607], [80.2325545, 13.0420893], [80.2329533, 13.0420068], [80.2332475, 13.0419372], [80.2338254, 13.0418229], [80.2338324, 13.0417629], [80.2337494, 13.0413592], [80.2334656, 13.0414326], [80.2332999, 13.0408603], [80.2332037, 13.0407614]]]}}, {"type": "Feature", "properties": {"osm_id": 209535301, "landuse": "retail"}, "geometry": {"type": "Polygon", "coordinates": [[[80.2314744, 13.0386376], [80.2317413, 13.0396134], [80.234389, 13.0391048], [80.2344291, 13.0390536], [80.2342252, 13.0380845], [80.2314744, 13.0386376]]]}}, {"type": "Feature", "properties": {"osm_id": 209535304, "landuse": "retail"}, "geometry": {"type": "Polygon", "coordinates": [[[80.2331968, 13.0393965], [80.2338827, 13.0392773], [80.2339461, 13.0396987], [80.2338521, 13.0397157], [80.2337713, 13.0398306], [80.233448, 13.0398924], [80.2335463, 13.0405117], [80.2333934, 13.0405415], [80.2331968, 13.0393965]]]}}, {"type": "Feature", "properties": {"osm_id": 209535305, "landuse": "retail"}, "geometry": {"type": "Polygon", "coordinates": [[[80.2331138, 13.0394093], [80.2333279, 13.0405457], [80.2322116, 13.0407883], [80.2321438, 13.0407692], [80.2320783, 13.0406947], [80.2319625, 13.0404265], [80.2317746, 13.0397093], [80.231803, 13.039671], [80.2331138, 13.0394093]]]}}, {"type": "Feature", "properties": {"osm_id": 214599737, "landuse": "commercial"}, "geometry": {"type": "Polygon", "coordinates": [[[80.2431981, 13.0436963], [80.2433065, 13.0443898], [80.2427545, 13.0444736], [80.2426509, 13.0437899], [80.2431981, 13.0436963]]]}}, {"type": "Feature", "properties": {"osm_id": 214599745, "landuse": "commercial"}, "geometry": {"type": "Polygon", "coordinates": [[[80.2408374, 13.0396868], [80.2408944, 13.0401864], [80.2409358, 13.0402167], [80.2430492, 13.0399442], [80.2429664, 13.0394244], [80.2408374, 13.0396868]]]}}, {"type": "Feature", "properties": {"osm_id": 214599788, "landuse": "commercial"}, "geometry": {"type": "Polygon", "coordinates": [[[80.2353634, 13.0377571], [80.2346217, 13.0389989], [80.2345668, 13.0390007], [80.2345082, 13.0389471], [80.2342701, 13.0378677], [80.2347719, 13.0377714], [80.2347939, 13.0378677], [80.2353634, 13.0377571]]]}}, {"type": "Feature", "properties": {"osm_id": 217691709, "landuse": "commercial"}, "geometry": {"type": "Polygon", "coordinates": [[[80.2348146, 13.0391915], [80.2348059, 13.0390983], [80.2355887, 13.0378569], [80.2356453, 13.0378442], [80.2364194, 13.0383442], [80.2366847, 13.0383654], [80.2367717, 13.0390009], [80.2356844, 13.0391746], [80.2355974, 13.0392721], [80.2354887, 13.0395051], [80.2348146, 13.0391915]]]}}, {"type": "Feature", "properties": {"osm_id": 217691745, "landuse": "retail"}, "geometry": {"type": "Polygon", "coordinates": [[[80.2342405, 13.0400389], [80.2346624, 13.0393017], [80.2347494, 13.0392763], [80.2358149, 13.0397678], [80.2358975, 13.0400559], [80.2345754, 13.0402084], [80.2342405, 13.0400389]]]}}, {"type": "Feature", "properties": {"osm_id": 217731051, "landuse": "commercial"}, "geometry": {"type": "Polygon", "coordinates": [[[80.2336425, 13.0468946], [80.2353428, 13.0466479], [80.2354024, 13.0470053], [80.2336872, 13.0472484], [80.2336425, 13.0468946]]]}}, {"type": "Feature", "properties": {"osm_id": 217731052, "landuse": "commercial"}, "geometry": {"type": "Polygon", "coordinates": [[[80.2334432, 13.0464403], [80.2330008, 13.046507], [80.2328296, 13.0456628], [80.2332879, 13.0455859], [80.2334432, 13.0464403]]]}}, {"type": "Feature", "properties": {"osm_id": 217731055, "landuse": "commercial"}, "geometry": {"type": "Polygon", "coordinates": [[[80.2331825, 13.0448982], [80.2331114, 13.0445108], [80.2326637, 13.0445878], [80.2327321, 13.0449778], [80.2331825, 13.0448982]]]}}, {"type": "Feature", "properties": {"osm_id": 217731058, "landuse": "retail"}, "geometry": {"type": "Polygon", "coordinates": [[[80.2331114, 13.0444261], [80.2330271, 13.0439643], [80.2325451, 13.0440438], [80.2326321, 13.0445082], [80.2331114, 13.0444261]]]}}, {"type": "Feature", "properties": {"osm_id": 217731064, "landuse": "commercial"}, "geometry": {"type": "Polygon", "coordinates": [[[80.2328243, 13.0455371], [80.2327242, 13.0450727], [80.2331588, 13.0449983], [80.2332615, 13.0454678], [80.2328243, 13.0455371]]]}}, {"type": "Feature", "properties": {"osm_id": 217731067, "landuse": "retail"}, "geometry": {"type": "Polygon", "coordinates": [[[80.2325309, 13.0422297], [80.2324314, 13.0422957], [80.2324195, 13.0424272], [80.2324269, 13.0425881], [80.2324528, 13.042945], [80.2339503, 13.0426389], [80.2338273, 13.041993], [80.232625, 13.0422067], [80.2325309, 13.0422297]]]}}, {"type": "Feature", "properties": {"osm_id": 218144544, "landuse": "commercial"}, "geometry": {"type": "Polygon", "coordinates": [[[80.2398187, 13.045889], [80.2402168, 13.0453507], [80.24028, 13.0453308], [80.2404418, 13.0453507], [80.2414427, 13.0459161], [80.2412157, 13.0462713], [80.2410483, 13.0463474], [80.2397763, 13.0466452], [80.2396894, 13.0461685], [80.2397236, 13.0460634], [80.2398187, 13.045889]]]}}, {"type": "Feature", "properties": {"osm_id": 218144550, "landuse": "commercial"}, "geometry": {"type": "Polygon", "coordinates": [[[80.2426649, 13.0465478], [80.2435278, 13.0470348], [80.2430542, 13.0478139], [80.2421992, 13.0473474], [80.2426649, 13.0465478]]]}}, {"type": "Feature", "properties": {"osm_id": 218144554, "landuse": "commercial"}, "geometry": {"type": "Polygon", "coordinates": [[[80.2360971, 13.0404717], [80.2360296, 13.0400596], [80.2360129, 13.0399338], [80.2367688, 13.0397377], [80.2369438, 13.0397087], [80.2378982, 13.0395512], [80.2380705, 13.0395957], [80.2381494, 13.0401892], [80.2365702, 13.0403986], [80.2360971, 13.0404717]]]}}, {"type": "Feature", "properties": {"osm_id": 218144557, "landuse": "commercial"}, "geometry": {"type": "Polygon", "coordinates": [[[80.2363009, 13.0413228], [80.2383063, 13.041127], [80.2383844, 13.0417758], [80.2363679, 13.0419462], [80.2363009, 13.0413228]]]}}, {"type": "Feature", "properties": {"osm_id": 218144918, "landuse": "commercial"}, "geometry": {"type": "Polygon", "coordinates": [[[80.2415678, 13.0459866], [80.2425386, 13.0465094], [80.2424281, 13.0467093], [80.2421966, 13.0467631], [80.2421519, 13.046576], [80.2414521, 13.0462146], [80.2415678, 13.0459866]]]}}, {"type": "Feature", "properties": {"osm_id": 218144927, "landuse": "commercial"}, "geometry": {"type": "Polygon", "coordinates": [[[80.2360899, 13.042632], [80.2360873, 13.0425115], [80.2363478, 13.0420886], [80.2364714, 13.0420374], [80.237842, 13.0419272], [80.2378815, 13.0426371], [80.2374106, 13.0433726], [80.2360899, 13.042632]]]}}, {"type": "Feature", "properties": {"osm_id": 218144933, "landuse": "commercial"}, "geometry": {"type": "Polygon", "coordinates": [[[80.2346334, 13.0415704], [80.2343316, 13.0416137], [80.235818, 13.04248], [80.2359285, 13.0424415], [80.2362047, 13.0420545], [80.2361916, 13.0418777], [80.2355812, 13.04197], [80.2355188, 13.0414524], [80.2346334, 13.0415704]]]}}, {"type": "Feature", "properties": {"osm_id": 218148416, "landuse": "commercial"}, "geometry": {"type": "Polygon", "coordinates": [[[80.2327231, 13.0475427], [80.2329799, 13.0475029], [80.2337054, 13.0508699], [80.2338505, 13.0516274], [80.2332998, 13.051747], [80.2328645, 13.049779], [80.2327492, 13.0491302], [80.2330096, 13.0491085], [80.2328831, 13.0482096], [80.2328087, 13.0482132], [80.2327231, 13.0475427]]]}}, {"type": "Feature", "properties": {"osm_id": 218148420, "landuse": "commercial"}, "geometry": {"type": "Polygon", "coordinates": [[[80.2358961, 13.0429007], [80.2360337, 13.0428717], [80.2372541, 13.0435676], [80.2371685, 13.0437669], [80.2371424, 13.043843], [80.2365769, 13.0437053], [80.2360337, 13.0433972], [80.2358998, 13.0436074], [80.2359556, 13.0438865], [80.2355315, 13.0439554], [80.2354905, 13.0436437], [80.235524, 13.0435313], [80.2358961, 13.0429007]]]}}, {"type": "Feature", "properties": {"osm_id": 218148455, "landuse": "commercial"}, "geometry": {"type": "Polygon", "coordinates": [[[80.2352055, 13.042422], [80.2356654, 13.0426723], [80.2357584, 13.0428173], [80.2353194, 13.0434769], [80.235085, 13.0435023], [80.234899, 13.0425527], [80.2351297, 13.042502], [80.2352055, 13.042422]]]}}, {"type": "Feature", "properties": {"osm_id": 218148456, "landuse": "commercial"}, "geometry": {"type": "Polygon", "coordinates": [[[80.2331994, 13.047521], [80.2332291, 13.0474594], [80.235733, 13.0471078], [80.2358, 13.0474811], [80.2335379, 13.0477312], [80.2335937, 13.0481516], [80.2333333, 13.0481806], [80.2331994, 13.047521]]]}}, {"type": "Feature", "properties": {"osm_id": 240516725, "landuse": "commercial"}, "geometry": {"type": "Polygon", "coordinates": [[[80.2399225, 13.0474245], [80.2400605, 13.048024], [80.2407117, 13.0478896], [80.2405627, 13.0472766], [80.2399225, 13.0474245]]]}}, {"type": "Feature", "properties": {"osm_id": 240516726, "landuse": "commercial"}, "geometry": {"type": "Polygon", "coordinates": [[[80.2402178, 13.0466772], [80.2397773, 13.04678], [80.2399043, 13.0472961], [80.2403447, 13.0471933], [80.2402178, 13.0466772]]]}}, {"type": "Feature", "properties": {"osm_id": 355626573, "landuse": "place_of_worship"}, "geometry": {"type": "Polygon", "coordinates": [[[80.2355951, 13.0434478], [80.2356926, 13.0434995], [80.2357023, 13.0434821], [80.2357571, 13.0435111], [80.2357867, 13.043458], [80.235894, 13.0435147], [80.235984, 13.0433534], [80.2358669, 13.0432914], [80.235876, 13.0432751], [80.2357336, 13.0431997], [80.2355951, 13.0434478]]]}}, {"type": "Feature", "properties": {"osm_id": 387467177, "landuse": "place_of_worship"}, "geometry": {"type": "Polygon", "coordinates": [[[80.2365972, 13.0397219], [80.2365508, 13.0394128], [80.2366491, 13.0393986], [80.2367823, 13.039377], [80.2368279, 13.0396905], [80.2365972, 13.0397219]]]}}, {"type": "Feature", "properties": {"osm_id": 1154911821, "landuse": "place_of_worship"}, "geometry": {"type": "Polygon", "coordinates": [[[80.2415851, 13.0449108], [80.2412777, 13.0454503], [80.2413877, 13.0455078], [80.2416904, 13.0449585], [80.2415851, 13.0449108]]]}}, {"type": "Feature", "properties": {"osm_id": 1188033392, "landuse": "construction"}, "geometry": {"type": "Polygon", "coordinates": [[[80.232966, 13.0419689], [80.2328716, 13.0416068], [80.233525, 13.0406578], [80.2337024, 13.0404767], [80.2338892, 13.0401747], [80.2340448, 13.0402402], [80.2338593, 13.0406115], [80.2339699, 13.0411517], [80.2338603, 13.0412189], [80.2337913, 13.0413246], [80.2333882, 13.0414275], [80.2334814, 13.0418434], [80.232966, 13.0419689]]]}}]}